{"type": "FeatureCollection", "crs": {"type": "name", "properties": {"name": "EPSG:4326"}}, "features": [{"type": "Feature", "id": 1, "geometry": {"type": "Polygon", "coordinates": [[[-73.9994797911446, 40.6921209264349], [-73.9995276327683, 40.6924074411077], [-73.9995284228292, 40.6926094793342], [-73.9995117610235, 40.6928278293773], [-73.9994776901936, 40.6930066981405], [-73.9994502402408, 40.693130229494], [-73.999393516488, 40.6932892616145], [-73.9992447760118, 40.6936231808688], [-73.998992424133, 40.694209550658], [-73.9988776932384, 40.6944658211657], [-73.9988160173775, 40.6945924155519], [-73.9964820173977, 40.6994891744653], [-73.9963032040225, 40.6994444521244], [-73.9961723465129, 40.6997249619376], [-73.9961380821664, 40.6997198792029], [-73.9961031809956, 40.6997192755846], [-73.9960686487224, 40.6997231691267], [-73.9960354768787, 40.6997314482002], [-73.996004620325, 40.6997438742036], [-73.9959769676714, 40.6997600896664], [-73.9959533128795, 40.6997796290538], [-73.9955786183953, 40.70044721724], [-73.9954139910261, 40.70055842496], [-73.9953357995662, 40.7006300287485], [-73.9952195289886, 40.7007052374601], [-73.9950858208755, 40.7007804417087], [-73.9949579241626, 40.7008600738742], [-73.9947486376454, 40.7009795183588], [-73.9946091140304, 40.7010547226862], [-73.9944347067948, 40.7011476229281], [-73.9942893692219, 40.7012228283862], [-73.9941382192458, 40.7012980333643], [-73.9940393883197, 40.7013466946669], [-73.9939474688735, 40.7013919532126], [-73.993055183635, 40.7011446330314], [-73.9933619150966, 40.7004942093811], [-73.9917651500902, 40.7000486930873], [-73.9929983971858, 40.6974979652317], [-73.9921157746416, 40.6972529030173], [-73.9922887236365, 40.6968899550215], [-73.9918045157803, 40.6967652446969], [-73.9939557606729, 40.6922433477639], [-73.9920073739116, 40.6917146673677], [-73.9929317019044, 40.6897932107017], [-73.9924475254835, 40.6896682310143], [-73.9952942118898, 40.6837679992912], [-74.0006427511132, 40.6852555797656], [-73.9984137253631, 40.689864355562], [-73.9979763625255, 40.6897443165758], [-73.9981477686808, 40.6893265946789], [-73.9975022581538, 40.6891626935406], [-73.9975250794485, 40.6891106200389], [-73.9970874281931, 40.6889994936409], [-73.9968754194706, 40.6894410728862], [-73.9965234744031, 40.6893436875766], [-73.9963734387392, 40.6896578495837], [-73.9962887170985, 40.6896344065195], [-73.9961180650806, 40.6899917264221], [-73.996549494424, 40.6901117939018], [-73.9964063244789, 40.6904088922993], [-73.9974002373094, 40.6906900827014], [-73.9972281868286, 40.6910424396414], [-73.9992933470939, 40.6916125452243], [-73.9994797911446, 40.6921209264349]]]}, "properties": {"OBJECTID": 1, "LHNAME": "Limited Height District", "LHLBL": "LH-1", "Shape__Area": 8929428.65196228, "Shape__Length": 17943.88933773336}}, {"type": "Feature", "id": 2, "geometry": {"type": "Polygon", "coordinates": [[[-73.9858858390962, 40.7359219717146], [-73.9870145697012, 40.7363984029446], [-73.9863244823664, 40.7373577421286], [-73.9874851062135, 40.7378455566488], [-73.9868442781356, 40.7387249093051], [-73.9864087535558, 40.7385409219565], [-73.9868340859404, 40.7379576558178], [-73.9849674950373, 40.7371735479537], [-73.9858858390962, 40.7359219717146]]]}, "properties": {"OBJECTID": 2, "LHNAME": "Limited Height District", "LHLBL": "LH-1", "Shape__Area": 266547.81593322754, "Shape__Length": 2984.1163354372793}}]}