{"type": "FeatureCollection", "crs": {"type": "name", "properties": {"name": "EPSG:4326"}}, "features": [{"type": "Feature", "id": 7, "geometry": {"type": "Polygon", "coordinates": [[[-73.9830218306119, 40.6930434958053], [-73.9825403647767, 40.6920628631331], [-73.9825467367601, 40.6920631117406], [-73.9834024983429, 40.6920964969757], [-73.9833708580628, 40.692708817937], [-73.9833528972027, 40.6930564106937], [-73.9830218306119, 40.6930434958053]]]}, "properties": {"OBJECTID": 7, "Boro": "3", "Status": "Adopted", "ProjectNam": "141 Willoughby Street", "DateAdopte": 1479254400000, "ZR_ULURPno": "160029ZRK", "ZR_Map": "CD2-Map 2 (Area 1)", "CD": "2", "MIH_Option": "Option 2", "Zoning_Map": "16C", "Project_ID": "P2014K0195", "Shape_Leng": 1062.72510148, "Shape__Area": 57976.72985839844, "Shape__Length": 1062.7251014812568}}, {"type": "Feature", "id": 21, "geometry": {"type": "Polygon", "coordinates": [[[-73.9585200410122, 40.6975954707474], [-73.9586386349779, 40.6975826775182], [-73.9587501941548, 40.6980741038727], [-73.9587376585786, 40.6980756158427], [-73.9578311115032, 40.6981849634156], [-73.9577301129219, 40.6976840873725], [-73.9578339830306, 40.6976724431209], [-73.9584907933646, 40.6975985876838], [-73.9585200410122, 40.6975954707474]]]}, "properties": {"OBJECTID": 21, "Boro": "3", "Status": "Adopted", "ProjectNam": "Rose Castle (Area 2)", "DateAdopte": 1494374400000, "ZR_ULURPno": "160222ZRK", "ZR_Map": "CD3-Map 3 (Area 2)", "CD": "3", "MIH_Option": "Option 1 and Option 2", "Zoning_Map": "12D", "Project_ID": "P2014K0469", "Shape_Leng": 878.96623761, "Shape__Area": 46968.3805847168, "Shape__Length": 878.9662376077616}}, {"type": "Feature", "id": 22, "geometry": {"type": "Polygon", "coordinates": [[[-73.959291920057, 40.6979409488364], [-73.9600670182253, 40.6978479362572], [-73.9601983222797, 40.6984709824464], [-73.959377577937, 40.6986026081895], [-73.9588722657675, 40.6986836432656], [-73.9587502885158, 40.6980745784766], [-73.9592595884253, 40.698012656021], [-73.9592457028158, 40.6979464940472], [-73.959291920057, 40.6979409488364]]]}, "properties": {"OBJECTID": 22, "Boro": "3", "Status": "Adopted", "ProjectNam": "Rose Castle (Area 1)", "DateAdopte": 1494374400000, "ZR_ULURPno": "160222ZRK", "ZR_Map": "CD3-Map 3 (Area 1)", "CD": "3", "MIH_Option": "Option 1, Option 2, and Workforce Option", "Zoning_Map": "12D", "Project_ID": "P2014K0469", "Shape_Leng": 1228.11049843, "Shape__Area": 86151.11544799805, "Shape__Length": 1228.1104984260298}}, {"type": "Feature", "id": 30, "geometry": {"type": "Polygon", "coordinates": [[[-73.9524151708861, 40.6946324665699], [-73.9533417374533, 40.6945379534626], [-73.953413329057, 40.6949022876974], [-73.9536757912731, 40.6948719968189], [-73.9542893641018, 40.6948011844605], [-73.9543623011815, 40.6951610232643], [-73.952670920282, 40.695354404309], [-73.9525602597851, 40.6953670559828], [-73.952530265579, 40.6952149415779], [-73.9524903398408, 40.6950120260272], [-73.9524151708861, 40.6946324665699]]]}, "properties": {"OBJECTID": 30, "Boro": "3", "Status": "Adopted", "ProjectNam": "723-733 Myrtle Avenue Rezoning", "DateAdopte": 1512000000000, "ZR_ULURPno": "170026ZRK", "ZR_Map": "CD3-Map 3 (Area 3)", "CD": "3", "MIH_Option": "Option 1", "Zoning_Map": "13B", "Project_ID": "P2015K0203", "Shape_Leng": 1547.75833051, "Shape__Area": 102174.97967529297, "Shape__Length": 1547.7583305128362}}, {"type": "Feature", "id": 34, "geometry": {"type": "Polygon", "coordinates": [[[-73.9815635436246, 40.6957475820198], [-73.9815907939904, 40.6951981312902], [-73.9823475560361, 40.6952198711471], [-73.9824301759003, 40.695222244032], [-73.9823913314335, 40.6959610124839], [-73.9818040902781, 40.6959391971823], [-73.9815545001258, 40.695929923599], [-73.9815585358595, 40.6958485440074], [-73.9815635436246, 40.6957475820198]]]}, "properties": {"OBJECTID": 34, "Boro": "3", "Status": "Adopted", "ProjectNam": "Tillary and Prince Streets Rezoning", "DateAdopte": 1509408000000, "ZR_ULURPno": "170401ZRK", "ZR_Map": "CD2-Map 5 (Area 2)", "CD": "2", "MIH_Option": "Option 1", "Zoning_Map": "12D", "Project_ID": "P2016K0138", "Shape_Leng": 1001.42847016, "Shape__Area": 62362.76362609863, "Shape__Length": 1001.4284701596647}}, {"type": "Feature", "id": 35, "geometry": {"type": "Polygon", "coordinates": [[[-73.9500173947464, 40.699807184985], [-73.9501087677217, 40.6998650564354], [-73.9507676999577, 40.7004516457674], [-73.9507574356284, 40.7004530452754], [-73.9504614821874, 40.7004934026173], [-73.950291137607, 40.7006016779232], [-73.9502897301042, 40.7006914106678], [-73.9502756711742, 40.701587498058], [-73.9502024828183, 40.7016348819889], [-73.9497492203166, 40.7019283312288], [-73.9493845129292, 40.7021664046326], [-73.9487495531973, 40.7015951998392], [-73.9481245259286, 40.7010329182487], [-73.9500173947464, 40.699807184985]]]}, "properties": {"OBJECTID": 35, "Boro": "3", "Status": "Adopted", "ProjectNam": "Pfizer Sites Rezoning", "DateAdopte": 1509408000000, "ZR_ULURPno": "150277ZRK", "ZR_Map": "CD1-Map 4 (Area 1)", "CD": "1", "MIH_Option": "Option 1", "Zoning_Map": "13B", "Project_ID": "P2013K0309", "Shape_Leng": 2376.03176313, "Shape__Area": 308931.2121887207, "Shape__Length": 2376.0317631261105}}, {"type": "Feature", "id": 54, "geometry": {"type": "Polygon", "coordinates": [[[-74.0046081726105, 40.7531926543245], [-74.0045276141461, 40.7531588039084], [-74.0043562839033, 40.7533960118305], [-74.004301737682, 40.7534692015819], [-74.003823608189, 40.7532689270757], [-74.0042759306431, 40.7526503177348], [-74.0060944306317, 40.753411535106], [-74.0060476987667, 40.7534772951978], [-74.0058702706449, 40.7537229569268], [-74.0058679699175, 40.753724288892], [-74.0054869118293, 40.7535655899549], [-74.0050997959804, 40.753404270451], [-74.0050757302113, 40.7533891133019], [-74.0046081726105, 40.7531926543245]]]}, "properties": {"OBJECTID": 54, "Boro": "1", "Status": "Adopted", "ProjectNam": "601 West 29th Street", "DateAdopte": 1530144000000, "ZR_ULURPno": "180128AZRM", "ZR_Map": "CD4-Map 1 (Area 1)", "CD": "4", "MIH_Option": "Option 1", "Zoning_Map": "8B", "Project_ID": "P2016M0289", "Shape_Leng": 1668.46469537, "Shape__Area": 94048.12532043457, "Shape__Length": 1668.4646953725326}}, {"type": "Feature", "id": 55, "geometry": {"type": "Polygon", "coordinates": [[[-74.0043562839033, 40.7533960118305], [-74.0045276141461, 40.7531588039084], [-74.0046081726105, 40.7531926543245], [-74.0047645506219, 40.7532583623645], [-74.00492250985, 40.7533247328961], [-74.0050757302113, 40.7533891133019], [-74.0049041621503, 40.7536266543282], [-74.0048509000236, 40.7537003971931], [-74.004301737682, 40.7534692015819], [-74.0043562839033, 40.7533960118305]]]}, "properties": {"OBJECTID": 55, "Boro": "1", "Status": "Adopted", "ProjectNam": "606 West 30th Street", "DateAdopte": 1530144000000, "ZR_ULURPno": "180151AZRM", "ZR_Map": "CD4-Map 1 (Area 2)", "CD": "4", "MIH_Option": "Option 1 and Option 2", "Zoning_Map": "8B", "Project_ID": "P2017M0157", "Shape_Leng": 606.052618, "Shape__Area": 22443.35385131836, "Shape__Length": 606.0526180017366}}, {"type": "Feature", "id": 57, "geometry": {"type": "Polygon", "coordinates": [[[-73.9744253781633, 40.7433941022278], [-73.9744874316353, 40.7433088514802], [-73.975117549731, 40.7435766677372], [-73.9750564175681, 40.743659808232], [-73.97504760036, 40.7436724980679], [-73.9748793649045, 40.7439006013417], [-73.9742492614939, 40.7436352899086], [-73.9744253781633, 40.7433941022278]]]}, "properties": {"OBJECTID": 57, "Boro": "1", "Status": "Adopted", "ProjectNam": "East 33rd Street Rezoning", "DateAdopte": 1533686400000, "ZR_ULURPno": "170381ZRM", "ZR_Map": "CD6-Map 2 (Area 1)", "CD": "6", "MIH_Option": "Option 1 and Option 2", "Zoning_Map": "8D", "Project_ID": "P2016M0133", "Shape_Leng": 670.82990709, "Shape__Area": 27099.732620239258, "Shape__Length": 670.8299070893167}}, {"type": "Feature", "id": 58, "geometry": {"type": "Polygon", "coordinates": [[[-73.9886393734309, 40.7334273347714], [-73.9888667817524, 40.7331114883904], [-73.9893414140502, 40.7333120413637], [-73.9892933229357, 40.7333788366066], [-73.9891142748963, 40.7336275194902], [-73.988845561201, 40.7340007301194], [-73.98878076104, 40.7339736599529], [-73.9883704246135, 40.7338008738653], [-73.988455431304, 40.7336828095803], [-73.9886393734309, 40.7334273347714]]]}, "properties": {"OBJECTID": 58, "Boro": "1", "Status": "Adopted", "ProjectNam": "East 14th Street and Irving Place", "DateAdopte": 1533686400000, "ZR_ULURPno": "180202ZRM", "ZR_Map": "CD3-Map 2 (Area 1)", "CD": "3", "MIH_Option": "Option 1 and Option 2", "Zoning_Map": "12C", "Project_ID": "P2017M0208", "Shape_Leng": 873.38915167, "Shape__Area": 43072.3865814209, "Shape__Length": 873.3891516694432}}, {"type": "Feature", "id": 66, "geometry": {"type": "Polygon", "coordinates": [[[-73.9704121312834, 40.6960350766946], [-73.9704021709892, 40.6959883726408], [-73.9704049974741, 40.6959884868322], [-73.9714357470064, 40.6960301014942], [-73.9714434287388, 40.6960725643782], [-73.9714514663782, 40.6961735957988], [-73.9714811372963, 40.6963259654076], [-73.9704928348826, 40.6964441832432], [-73.970431350577, 40.6961252067521], [-73.9704121312834, 40.6960350766946]]]}, "properties": {"OBJECTID": 66, "Boro": "3", "Status": "Adopted", "ProjectNam": "205 Park Avenue", "DateAdopte": 1537920000000, "ZR_ULURPno": "170165ZRK", "ZR_Map": "CD2-Map 1 (Area 5)", "CD": "2", "MIH_Option": "Option 1 and Option 3", "Zoning_Map": "12D", "Project_ID": "P2013K0511", "Shape_Leng": 841.00013485, "Shape__Area": 38530.718978881836, "Shape__Length": 841.0001348476543}}, {"type": "Feature", "id": 73, "geometry": {"type": "Polygon", "coordinates": [[[-73.9548749048995, 40.6931117891416], [-73.9558282012104, 40.6930013454115], [-73.9558885076647, 40.6933043750108], [-73.9553189363143, 40.6933688130459], [-73.9549348800815, 40.693412063538], [-73.9548749048995, 40.6931117891416]]]}, "properties": {"OBJECTID": 73, "Boro": "3", "Status": "Adopted", "ProjectNam": "895 Bedford Avenue Rezoning", "DateAdopte": 1550016000000, "ZR_ULURPno": "180230ZRK", "ZR_Map": "CD3-Map 3 (Area 4)", "CD": "3", "MIH_Option": "Option 1 and Option 2", "Zoning_Map": "17A", "Project_ID": "P2014K0259", "Shape_Leng": 757.06436702, "Shape__Area": 29726.52571105957, "Shape__Length": 757.0643670192273}}, {"type": "Feature", "id": 98, "geometry": {"type": "Polygon", "coordinates": [[[-73.9817678725491, 40.6924489122243], [-73.981756819239, 40.6929626757196], [-73.9810364647184, 40.692943482822], [-73.9810569953216, 40.6924339353554], [-73.9817678725491, 40.6924489122243]]]}, "properties": {"OBJECTID": 98, "Boro": "3", "Status": "Adopted", "ProjectNam": "101 Fleet Place", "DateAdopte": 1575936000000, "ZR_ULURPno": "180252ZRK", "ZR_Map": "CD2-Map 2 (Area 8)", "CD": "2", "MIH_Option": "Option 1", "Zoning_Map": "16C", "Project_ID": "P2015K0330", "Shape_Leng": 770.02893005, "Shape__Area": 37020.21690368652, "Shape__Length": 770.0289300461644}}, {"type": "Feature", "id": 102, "geometry": {"type": "Polygon", "coordinates": [[[-73.9868649898834, 40.6992283758651], [-73.9878151749781, 40.6992637759406], [-73.9877748952131, 40.6999605313686], [-73.9868175150156, 40.6999287114784], [-73.9868649898834, 40.6992283758651]]]}, "properties": {"OBJECTID": 102, "Boro": "3", "Status": "Adopted", "ProjectNam": "90 Sands Street", "DateAdopte": 1587513600000, "ZR_ULURPno": "200060ZRK", "ZR_Map": "CD2-Map 9 (Area 9)", "CD": "2", "MIH_Option": "Option 1 and Option 2", "Zoning_Map": "12D", "Project_ID": "P2019K0320", "Shape_Leng": 1039.0895038, "Shape__Area": 67456.10340881348, "Shape__Length": 1039.0895038045041}}, {"type": "Feature", "id": 128, "geometry": {"type": "Polygon", "coordinates": [[[-73.9883622433552, 40.716464766406], [-73.9878808008703, 40.7174172305858], [-73.9870416114743, 40.7171648252442], [-73.9875319768475, 40.7162137324819], [-73.9883622433552, 40.716464766406]]]}, "properties": {"OBJECTID": 128, "Boro": "1", "Status": "Adopted", "ProjectNam": "GO Broome Street Development", "DateAdopte": 1582761600000, "ZR_ULURPno": "200065ZRM", "ZR_Map": "CD3-Map1 (Area 2)", "CD": "3", "MIH_Option": "Option 1", "Zoning_Map": "12C", "Project_ID": "P2015M0228", "Shape_Leng": 1241.82650085, "Shape__Area": 92592.20883178711, "Shape__Length": 1241.8265008503279}}, {"type": "Feature", "id": 131, "geometry": {"type": "Polygon", "coordinates": [[[-73.9659534087035, 40.7145109361412], [-73.9663274954474, 40.7137076402531], [-73.9666372528953, 40.7137910132651], [-73.9662749415904, 40.7145963802718], [-73.9659534087035, 40.7145109361412]]]}, "properties": {"OBJECTID": 131, "Boro": "3", "Status": "Adopted", "ProjectNam": "307 Kent Avenue", "DateAdopte": 1633564800000, "ZR_ULURPno": "200307ZRK", "ZR_Map": "CD1-Map 2 (Area 2)", "CD": "1", "MIH_Option": "Option 1 and Option 2", "Zoning_Map": "12D", "Project_ID": "P2015K0307", "Shape_Leng": 806.13126855, "Shape__Area": 28781.309646606445, "Shape__Length": 806.1312685479921}}, {"type": "Feature", "id": 135, "geometry": {"type": "Polygon", "coordinates": [[[-73.9992448874797, 40.7595347842668], [-73.9996896919631, 40.7589317271603], [-74.0002492267067, 40.7591570606534], [-74.0001881080223, 40.7592257936117], [-73.9998481707866, 40.759707113547], [-73.9998047218181, 40.7597726378191], [-73.9992448874797, 40.7595347842668]]]}, "properties": {"OBJECTID": 135, "Boro": "1", "Status": "Adopted", "ProjectNam": "495 11th Avenue (Slaughterhouse)", "DateAdopte": 1634774400000, "ZR_ULURPno": "210325ZRM", "ZR_Map": "CD4-Map 4 (Area 3)", "CD": "4", "MIH_Option": "Option 1 and Option 2", "Zoning_Map": "8D", "Project_ID": "2021M0107", "Shape_Leng": 860.99113658, "Shape__Area": 44388.91172790527, "Shape__Length": 860.9911365809145}}, {"type": "Feature", "id": 138, "geometry": {"type": "Polygon", "coordinates": [[[-73.9517624195108, 40.6913362552843], [-73.9516175883848, 40.6906048524108], [-73.952590559297, 40.6904925013392], [-73.9527358039763, 40.6912243255048], [-73.9517624195108, 40.6913362552843]]]}, "properties": {"OBJECTID": 138, "Boro": "3", "Status": "Adopted", "ProjectNam": "270 Nostrand Avenue", "DateAdopte": 1636502400000, "ZR_ULURPno": "210152ZRK", "ZR_Map": "CD3-Map 3 (Area 7)", "CD": "3", "MIH_Option": "Option 2", "Zoning_Map": "17A", "Project_ID": "2019K0224", "Shape_Leng": 1085.04212853, "Shape__Area": 73579.39138793945, "Shape__Length": 1085.0421285338562}}, {"type": "Feature", "id": 140, "geometry": {"type": "Polygon", "coordinates": [[[-73.9378915402883, 40.7163959532901], [-73.9400264793777, 40.7158342697016], [-73.9402296459266, 40.7171183214717], [-73.9384437832096, 40.7176875602906], [-73.9378915402883, 40.7163959532901]]]}, "properties": {"OBJECTID": 140, "Boro": "3", "Status": "Adopted", "ProjectNam": "Cooper Park Commons", "DateAdopte": 1637625600000, "ZR_ULURPno": "210482ZRK", "ZR_Map": "CD1-Map 2 (Area 3)", "CD": "1", "MIH_Option": "Option 1 and Option 3", "Zoning_Map": "13A,13B", "Project_ID": "2019K0177", "Shape_Leng": 2129.00052283, "Shape__Area": 276552.31158447266, "Shape__Length": 2129.0005228270334}}, {"type": "Feature", "id": 144, "geometry": {"type": "Polygon", "coordinates": [[[-73.9418784460384, 40.7143508222201], [-73.9420672764638, 40.7147371248443], [-73.9413445667132, 40.714709569786], [-73.9411397478163, 40.7147017595823], [-73.9411671579398, 40.7143227729272], [-73.9418784460384, 40.7143508222201]]]}, "properties": {"OBJECTID": 144, "Boro": "3", "Status": "Adopted", "ProjectNam": "824 Metropolitan Avenue Rezoning", "DateAdopte": 1637625600000, "ZR_ULURPno": "200315ZRK", "ZR_Map": "CD1-Map 2 (Area 4)", "CD": "2", "MIH_Option": "Option 1 and Option 3", "Zoning_Map": "13B", "Project_ID": "P2018K0031", "Shape_Leng": 743.34734774, "Shape__Area": 31409.255111694336, "Shape__Length": 743.3473477403072}}, {"type": "Feature", "id": 149, "geometry": {"type": "Polygon", "coordinates": [[[-73.9578462264696, 40.7262602512211], [-73.9586616692989, 40.7261842836212], [-73.9587173873543, 40.7265419885748], [-73.9586164330314, 40.7265513671612], [-73.9577780849247, 40.7266290208007], [-73.9578180138007, 40.7264129321352], [-73.9578462264696, 40.7262602512211]]]}, "properties": {"OBJECTID": 149, "Boro": "3", "Status": "Adopted", "ProjectNam": "79 Quay Street Rezoning", "DateAdopte": 1639526400000, "ZR_ULURPno": "210167ZRK", "ZR_Map": "CD1-Map 1 (Area 5)", "CD": "1", "MIH_Option": "Option 1 and Option 3", "Zoning_Map": "12C", "Project_ID": "2019K0442", "Shape_Leng": 756.88650574, "Shape__Area": 32132.430282592773, "Shape__Length": 756.8865057426143}}, {"type": "Feature", "id": 150, "geometry": {"type": "Polygon", "coordinates": [[[-73.9646354639844, 40.7183790838046], [-73.9652107524244, 40.7178009505163], [-73.9657357643699, 40.7172733314959], [-73.9663422861694, 40.7175706193549], [-73.9670212984089, 40.7168882137339], [-73.9679305216702, 40.7172559769379], [-73.9672833800384, 40.7183106732612], [-73.9671747134801, 40.7184877708786], [-73.9665184471545, 40.7195572942349], [-73.9655063266881, 40.7189263997958], [-73.9653903526567, 40.7188535137262], [-73.9646354639844, 40.7183790838046]]]}, "properties": {"OBJECTID": 150, "Boro": "3", "Status": "Adopted", "ProjectNam": "River Ring", "DateAdopte": 1639526400000, "ZR_ULURPno": "220063ZRK", "ZR_Map": "CD1-Map 2 (Area 6)", "CD": "1", "MIH_Option": "Option 1", "Zoning_Map": "12C", "Project_ID": "2021K0237", "Shape_Leng": 2903.69968725, "Shape__Area": 435112.01985168457, "Shape__Length": 2903.6996872510917}}, {"type": "Feature", "id": 152, "geometry": {"type": "Polygon", "coordinates": [[[-74.0031998467669, 40.7242054342765], [-74.0028681191852, 40.7240424832427], [-74.0004083040066, 40.7269890898442], [-74.000292826767, 40.7271274119886], [-73.9999172393965, 40.7269429718791], [-73.9991196942728, 40.7265505717321], [-73.998362640017, 40.7261757274508], [-73.9976116426958, 40.7258053970534], [-73.9967732040345, 40.7254402030323], [-73.9958449738369, 40.726534903385], [-73.9952710850916, 40.7272196202437], [-73.9947523753132, 40.7278270361174], [-73.9942542303488, 40.7284207169712], [-73.9937484768389, 40.7290155577663], [-73.9932630769289, 40.729588100888], [-73.9928422029151, 40.7300872103658], [-73.9914367154578, 40.7298710545054], [-73.9917349137719, 40.7295233277384], [-73.9908662002142, 40.7293778101532], [-73.9909243491346, 40.7291769202485], [-73.9911240115937, 40.7285762261867], [-73.9912785124736, 40.7277530458779], [-73.9913653260405, 40.7275680428514], [-73.9915497716238, 40.727097730582], [-73.9917952381648, 40.7263997187166], [-73.9922987829296, 40.7266447081714], [-73.9927536701246, 40.7253831693677], [-73.9930434263423, 40.7254598754996], [-73.9937585572973, 40.7256545264179], [-73.9939930132208, 40.7257203462948], [-73.9944678210266, 40.7258536373322], [-73.9949097200528, 40.7249594880498], [-73.9953305256402, 40.7250919987068], [-73.9958838115373, 40.7244110996803], [-73.9961497631875, 40.7240899962342], [-73.9960300108849, 40.7240403840076], [-73.9955617511955, 40.723837669454], [-73.9954891404519, 40.7238075869172], [-73.9957062360404, 40.7233742826665], [-73.9964777933664, 40.7236939347677], [-73.9966621085547, 40.7234749003326], [-73.9971241429328, 40.7223090140737], [-73.997762525288, 40.7215843800054], [-73.9981968138951, 40.7210719255351], [-73.9976562639892, 40.7208441678834], [-73.9985366678228, 40.7197787675916], [-73.9981382484441, 40.7195932946219], [-73.9983836814604, 40.7190259004919], [-73.9987539554392, 40.7184526196767], [-73.9993138640617, 40.7175584988406], [-73.9999576560771, 40.7180253523475], [-74.0005334028236, 40.7184384961406], [-74.0012741815834, 40.7189696831797], [-74.0018855101289, 40.7194058277887], [-74.0026014674561, 40.7199116833842], [-74.0032609998209, 40.7203853536857], [-74.0035133128004, 40.7205646107512], [-74.0039307324645, 40.7208626930107], [-74.0046366114062, 40.7213618904344], [-74.0053113106435, 40.7218324496334], [-74.005339706454, 40.7222600472227], [-74.0050512730435, 40.7230075516346], [-74.0047871978872, 40.7236330964414], [-74.0038307383835, 40.7234575770364], [-74.0036369074331, 40.7236902848778], [-74.0031998467669, 40.7242054342765]]]}, "properties": {"OBJECTID": 152, "Boro": "1", "Status": "Adopted", "ProjectNam": "SoHo/NoHo Neighborhood Plan", "DateAdopte": 1639526400000, "ZR_ULURPno": "210423ZRM", "ZR_Map": "CD2-Map 2 (Area 1)", "CD": "2", "MIH_Option": "Option 1", "Zoning_Map": "12a,12c", "Project_ID": "2018M0375", "Shape_Leng": 15396.514808, "Shape__Area": 6343659.354385376, "Shape__Length": 15396.51480801724}}, {"type": "Feature", "id": 162, "geometry": {"type": "Polygon", "coordinates": [[[-73.9506380650399, 40.7217124989204], [-73.9508825633516, 40.72214891849], [-73.9500155273448, 40.7224344770259], [-73.9498681947811, 40.7221759504612], [-73.9498680859621, 40.7221758531587], [-73.9506380650399, 40.7217124989204]]]}, "properties": {"OBJECTID": 162, "Boro": "3", "Status": "Adopted", "ProjectNam": "840 Lorimer Street Rezoning", "DateAdopte": 1654128000000, "ZR_ULURPno": "210300ZRK", "ZR_Map": "CD1-Map 2 (Area 7)", "CD": "1", "MIH_Option": "Option 1 and Option 2", "Zoning_Map": "13A", "Project_ID": "2020K0259", "Shape_Leng": 809.5570735, "Shape__Area": 36136.100021362305, "Shape__Length": 809.5570734993842}}, {"type": "Feature", "id": 163, "geometry": {"type": "Polygon", "coordinates": [[[-73.9581976288198, 40.7047281097696], [-73.9585611094056, 40.7044938334597], [-73.9588756191997, 40.7047756209448], [-73.9585138861348, 40.7050114639587], [-73.9581976288198, 40.7047281097696]]]}, "properties": {"OBJECTID": 163, "Boro": "3", "Status": "Adopted", "ProjectNam": "103 Lee Avenue", "DateAdopte": 1654128000000, "ZR_ULURPno": "210313ZRK", "ZR_Map": "CD1-Map 5 (Area 8)", "CD": "1", "MIH_Option": "Option 1 and Option 2", "Zoning_Map": "12D", "Project_ID": "2019K0213", "Shape_Leng": 534.28242652, "Shape__Area": 17838.758575439453, "Shape__Length": 534.2824265182296}}, {"type": "Feature", "id": 173, "geometry": {"type": "Polygon", "coordinates": [[[-73.937386738514, 40.7528543429449], [-73.9380686770516, 40.7521159994645], [-73.9388403702743, 40.7525233081321], [-73.9381586420644, 40.753261764309], [-73.937386738514, 40.7528543429449]]]}, "properties": {"OBJECTID": 173, "Boro": "4", "Status": "Adopted", "ProjectNam": "40-25 Crescent Street Rezoning", "DateAdopte": 1665532800000, "ZR_ULURPno": "220170ZRQ", "ZR_Map": "CD1-Map 10 (Area 16)", "CD": "1", "MIH_Option": "Option 1 and Option 3", "Zoning_Map": "9B", "Project_ID": "2020Q0105", "Shape_Leng": 1178.03888318, "Shape__Area": 85563.99447631836, "Shape__Length": 1178.038883180788}}, {"type": "Feature", "id": 180, "geometry": {"type": "Polygon", "coordinates": [[[-73.9579821428593, 40.6966320368306], [-73.9579208371116, 40.69632341411], [-73.9582774256818, 40.6962824616303], [-73.9588456518398, 40.6962172025293], [-73.9589074457157, 40.6965257691024], [-73.9579821428593, 40.6966320368306]]]}, "properties": {"OBJECTID": 180, "Boro": "3", "Status": "Adopted", "ProjectNam": "446-448 Park Avenue", "DateAdopte": 1675296000000, "ZR_ULURPno": "220333ZRK", "ZR_Map": "CD3-Map 3 (Area 9)", "CD": "3", "MIH_Option": "Option 1", "Zoning_Map": "12D", "Project_ID": "2019K0406", "Shape_Leng": 746.27365716, "Shape__Area": 29500.632736206055, "Shape__Length": 746.2736571576693}}, {"type": "Feature", "id": 191, "geometry": {"type": "Polygon", "coordinates": [[[-73.9542893275509, 40.6948010007413], [-73.9551915443561, 40.6946970563116], [-73.9552634921221, 40.6950572525662], [-73.9543623011815, 40.6951610232643], [-73.9542893275509, 40.6948010007413]]]}, "properties": {"OBJECTID": 191, "Boro": "2", "Status": "Adopted", "ProjectNam": "703 Myrtle Avenue Rezoning", "DateAdopte": 1698883200000, "ZR_ULURPno": "220454ZRK", "ZR_Map": "CD3-Map 3 (Area10)", "CD": "3", "MIH_Option": "Option 1 and Option 3", "Zoning_Map": "13B", "Project_ID": "2020K0485", "Shape_Leng": 771.23848215, "Shape__Area": 33565.711181640625, "Shape__Length": 771.238482151928}}, {"type": "Feature", "id": 197, "geometry": {"type": "Polygon", "coordinates": [[[-73.9657357643699, 40.7172733314959], [-73.9652107524244, 40.7178009505163], [-73.9647297994647, 40.7175292048939], [-73.9652563443309, 40.7170383383362], [-73.9657357643699, 40.7172733314959]]]}, "properties": {"OBJECTID": 197, "Boro": "3", "Status": "Adopted", "ProjectNam": "230 Kent Avenue", "DateAdopte": 1709769600000, "ZR_ULURPno": "230288ZRK", "ZR_Map": "CD1-Map 2 (Area9)", "CD": "1", "MIH_Option": "Option 1", "Zoning_Map": "12C", "Project_ID": "2022K0391", "Shape_Leng": 796.10269202, "Shape__Area": 38150.804748535156, "Shape__Length": 796.1026920219666}}, {"type": "Feature", "id": 200, "geometry": {"type": "Polygon", "coordinates": [[[-73.9410419480538, 40.7126741102819], [-73.9399337112258, 40.7129380102609], [-73.9397581063524, 40.7125873756958], [-73.9400660053322, 40.7125140583049], [-73.9398888309254, 40.7121602875227], [-73.9406894587735, 40.7119703059292], [-73.9410419480538, 40.7126741102819]]]}, "properties": {"OBJECTID": 200, "Boro": "3", "Status": "Adopted", "ProjectNam": "Jennings Hall Expansion", "DateAdopte": 1710806400000, "ZR_ULURPno": "230256ZRK", "ZR_Map": "CD1-Map 2 (Area 10)", "CD": "1", "MIH_Option": "Option 1 and Option 3", "Zoning_Map": "13B", "Project_ID": "2021K0449", "Shape_Leng": 1192.91406574, "Shape__Area": 75909.58329772949, "Shape__Length": 1192.9140657351827}}, {"type": "Feature", "id": 209, "geometry": {"type": "Polygon", "coordinates": [[[-73.9551915443561, 40.6946970563116], [-73.9542893275509, 40.6948010007413], [-73.9542155470061, 40.6944369966662], [-73.9551187248036, 40.6943324885651], [-73.9551915443561, 40.6946970563116]]]}, "properties": {"OBJECTID": 209, "Boro": "3", "Status": "Adopted", "ProjectNam": "712 Myrtle Ave", "DateAdopte": 1723680000000, "ZR_ULURPno": "230259ZRK", "ZR_Map": "CD3-Map 3 (Area 13)", "CD": "3", "MIH_Option": "Option 1 and Option 3", "Zoning_Map": "13B", "Project_ID": "2022K0109", "Shape_Leng": 774.90486416, "Shape__Area": 33994.468017578125, "Shape__Length": 774.9048641637337}}, {"type": "Feature", "id": 222, "geometry": {"type": "Polygon", "coordinates": [[[-73.9777596565263, 40.7398410306779], [-73.9767133805507, 40.7394016896132], [-73.9771490893979, 40.7388037227891], [-73.9781949145953, 40.7392403385144], [-73.9777596565263, 40.7398410306779]]]}, "properties": {"OBJECTID": 222, "Boro": "1", "Status": "Adopted", "ProjectNam": "455 First Avenue", "DateAdopte": 1739404800000, "ZR_ULURPno": "240344ZRM", "ZR_Map": "CD6-Map3 (Area 3)", "CD": "6", "MIH_Option": "Option 1 and Option 2", "Zoning_Map": "8D", "Project_ID": "2024M0139", "Shape_Leng": 1160.76097727, "Shape__Area": 82553.18086242676, "Shape__Length": 1160.7609772677856}}, {"type": "Feature", "id": 223, "geometry": {"type": "Polygon", "coordinates": [[[-73.9776041427299, 40.738180057542], [-73.977541177783, 40.7382663535392], [-73.9771490893979, 40.7388037227891], [-73.9770947070595, 40.7388783577635], [-73.9742006606358, 40.7376734411143], [-73.9742024433286, 40.7376710020381], [-73.9746460311671, 40.7370643969237], [-73.9746468200381, 40.7370633191895], [-73.9746478222001, 40.7370617327153], [-73.9747173610124, 40.7369515996836], [-73.9749364366282, 40.7370495237631], [-73.9776041427299, 40.738180057542]]]}, "properties": {"OBJECTID": 223, "Boro": "1", "Status": "Adopted", "ProjectNam": "SPARC Kips Bay", "DateAdopte": 1739404800000, "ZR_ULURPno": "240371ZRM", "ZR_Map": "CD6-Map3 (Area 2)", "CD": "6", "MIH_Option": "Option 1 and Option 2", "Zoning_Map": "8D", "Project_ID": "2024M0158", "Shape_Leng": 2421.45994866, "Shape__Area": 269216.4037322998, "Shape__Length": 2421.4599486609222}}, {"type": "Feature", "id": 234, "geometry": {"type": "Polygon", "coordinates": [[[-73.9412290908308, 40.7155273934242], [-73.9421621973688, 40.7150713070675], [-73.9426995097905, 40.7147922355257], [-73.9427033335372, 40.7148239912376], [-73.9428191337058, 40.7153949545701], [-73.9421642712735, 40.7154486184758], [-73.9412290908308, 40.7155273934242]]]}, "properties": {"OBJECTID": 234, "Boro": "3", "Status": "Adopted", "ProjectNam": "19 Maspeth Avenue", "DateAdopte": 1748390400000, "ZR_ULURPno": "240407ZRK", "ZR_Map": "CD1-Map 2 (Area 11)", "CD": "1", "MIH_Option": "Option 1 and Option 2", "Zoning_Map": "13B", "Project_ID": "2023K0181", "Shape_Leng": 1153.31122355, "Shape__Area": 48275.00428771973, "Shape__Length": 1153.3112235451426}}, {"type": "Feature", "id": 242, "geometry": {"type": "Polygon", "coordinates": [[[-73.9583806075182, 40.7177875232225], [-73.9593081359049, 40.7183640543445], [-73.9590039472841, 40.718647363103], [-73.9580777086158, 40.7180692820452], [-73.9583806075182, 40.7177875232225]]]}, "properties": {"OBJECTID": 242, "Boro": "3", "Status": "Adopted", "ProjectNam": "North 7th Street", "DateAdopte": 1752451200000, "ZR_ULURPno": "230065ZRK", "ZR_Map": "CD1-Map 2 (Area 12)", "CD": "1", "MIH_Option": "Option 1", "Zoning_Map": "12C", "Project_ID": "2019K0270", "Shape_Leng": 929.99643927, "Shape__Area": 44145.95753479004, "Shape__Length": 929.9964392661991}}, {"type": "Feature", "id": 245, "geometry": {"type": "Polygon", "coordinates": [[[-73.9380994552348, 40.6959116333187], [-73.9379527090629, 40.6951711984383], [-73.9404133703803, 40.6948870621621], [-73.94056103283, 40.6956289838392], [-73.9380994552348, 40.6959116333187]]]}, "properties": {"OBJECTID": 245, "Boro": "3", "Status": "Adopted", "ProjectNam": "109 Marcus Garvey Boulevard LSGD", "DateAdopte": 1752451200000, "ZR_ULURPno": "240398ZRK", "ZR_Map": "CD3-Map5 (Area 15)", "CD": "3", "MIH_Option": "Option 1 and Option 3", "Zoning_Map": "13B", "Project_ID": "2023K0128", "Shape_Leng": 1926.67011951, "Shape__Area": 188503.5594482422, "Shape__Length": 1926.6701195112066}}, {"type": "Feature", "id": 248, "geometry": {"type": "Polygon", "coordinates": [[[-73.9666045342683, 40.6969754255304], [-73.9667437213951, 40.6976803925245], [-73.9657925348931, 40.6976446479811], [-73.9654644217609, 40.6959536852168], [-73.9654553676625, 40.6959070224289], [-73.96545067365, 40.6958828287435], [-73.9654332959184, 40.6957932666262], [-73.9654308108588, 40.6957804623886], [-73.9654307365188, 40.6957800805489], [-73.9654147642038, 40.6956977625749], [-73.9654095404058, 40.6956708410747], [-73.965401201454, 40.6956278642948], [-73.9663456196068, 40.6956640090385], [-73.9663531535161, 40.6957021713726], [-73.9663749775954, 40.6958127102956], [-73.966376079836, 40.695818291996], [-73.9663773649963, 40.6958248012781], [-73.9664003409642, 40.6959411767544], [-73.9664101348945, 40.6959907843602], [-73.9664804465144, 40.6963469171355], [-73.9660264697297, 40.6963934936285], [-73.9661429001308, 40.6970228953679], [-73.9665172614966, 40.6969853877621], [-73.9665170703102, 40.6969844196554], [-73.9666045342683, 40.6969754255304]]]}, "properties": {"OBJECTID": 248, "Boro": "3", "Status": "Adopted", "ProjectNam": "47 Hall Street Rezoning", "DateAdopte": 1755129600000, "ZR_ULURPno": "250051ZRK", "ZR_Map": "CD2-Map1 (Area 14)", "CD": "2", "MIH_Option": "Option 1", "Zoning_Map": "12D", "Project_ID": "2024K0211", "Shape_Leng": 2268.48709665, "Shape__Area": 161981.66230773926, "Shape__Length": 2268.487096653092}}, {"type": "Feature", "id": 249, "geometry": {"type": "Polygon", "coordinates": [[[-73.9836225681226, 40.6972279373173], [-73.9831322830124, 40.6972110656539], [-73.9831554366464, 40.6968682537954], [-73.9832945490424, 40.6968736969554], [-73.9836435469336, 40.6968852187055], [-73.9836225681226, 40.6972279373173]]]}, "properties": {"OBJECTID": 249, "Boro": "3", "Status": "Adopted", "ProjectNam": "236 Gold Street Rezoning", "DateAdopte": 1755129600000, "ZR_ULURPno": "250032ZRK", "ZR_Map": "CD2-Map7 (Area 13)", "CD": "2", "MIH_Option": "Option 1", "Zoning_Map": "12D", "Project_ID": "2024K0146", "Shape_Leng": 521.64241273, "Shape__Area": 16962.77049255371, "Shape__Length": 521.6424127319624}}, {"type": "Feature", "id": 250, "geometry": {"type": "Polygon", "coordinates": [[[-73.9606122784302, 40.698403942108], [-73.9607137054045, 40.6987685888864], [-73.9602786394122, 40.6988386858477], [-73.9602022439731, 40.6984699743279], [-73.9606122784302, 40.698403942108]]]}, "properties": {"OBJECTID": 250, "Boro": "3", "Status": "Adopted", "ProjectNam": "347 Flushing Avenue", "DateAdopte": 1755129600000, "ZR_ULURPno": "240276ZRK", "ZR_Map": "CD1-Map6 (Area 13)", "CD": "1", "MIH_Option": "Option 1 and Option 2", "Zoning_Map": "12D", "Project_ID": "2022K0179", "Shape_Leng": 511.31424092, "Shape__Area": 16264.011093139648, "Shape__Length": 511.3142409208151}}, {"type": "Feature", "id": 252, "geometry": {"type": "MultiPolygon", "coordinates": [[[[-73.9957294815804, 40.7482487830505], [-73.994826578202, 40.7494794391898], [-73.9946682131199, 40.7494123190442], [-73.9924642781147, 40.7484781818665], [-73.9924638447629, 40.7484779981349], [-73.9915963355963, 40.7481142137], [-73.9911402733283, 40.7487415460993], [-73.9897162751126, 40.7481366297199], [-73.9930929580952, 40.743500262757], [-73.994906813241, 40.7442636908228], [-73.9942341115823, 40.7451899447586], [-73.9942818021666, 40.7452100590532], [-73.9947101200769, 40.7453907094596], [-73.9945902218035, 40.7455577659014], [-73.994260484796, 40.7460107462371], [-73.9938130984411, 40.7466253377636], [-73.9938141971921, 40.7466257997824], [-73.9936545790606, 40.7468430986463], [-73.9933624886797, 40.7472443433972], [-73.9957294815804, 40.7482487830505]]], [[[-73.9916508402843, 40.7555370563764], [-73.9911788276995, 40.7553381130642], [-73.9916341597699, 40.7547150692592], [-73.9916319880814, 40.754714161392], [-73.9920801961382, 40.7540992747319], [-73.9914484015123, 40.7538328816211], [-73.9915012497602, 40.7537603272879], [-73.9916720023124, 40.7535259030082], [-73.9915141351642, 40.7534594062542], [-73.9916848608435, 40.7532250179636], [-73.9917398437577, 40.7531495307215], [-73.9919768096156, 40.7532492910821], [-73.9920267646279, 40.753180701227], [-73.9921990760022, 40.7529441105381], [-73.9914584634042, 40.7526321750423], [-73.9912860388758, 40.7528689168109], [-73.9912361141282, 40.7529374640265], [-73.9914731211047, 40.7530372434396], [-73.9914181273218, 40.753112744963], [-73.9912474471823, 40.7533470698302], [-73.9909001410264, 40.753200775581], [-73.9907295180589, 40.7534350186368], [-73.9906767225263, 40.7535074996828], [-73.9903770706216, 40.753381147604], [-73.990324904852, 40.7534527523498], [-73.9901501610245, 40.753692612448], [-73.9902606634019, 40.7537391671784], [-73.9900363790849, 40.7540470263797], [-73.9903844848169, 40.7541925740611], [-73.9903285342045, 40.7542693969142], [-73.990156263686, 40.7545059325345], [-73.9900931138595, 40.7544793360933], [-73.9899208455155, 40.7547158659516], [-73.9898700272811, 40.7547856407684], [-73.9892232857119, 40.7545126280558], [-73.9891688590679, 40.7545873342967], [-73.9889962424971, 40.7548242634611], [-73.9894698316526, 40.7550237849958], [-73.9892972126521, 40.7552607190986], [-73.9892460771007, 40.7553309069372], [-73.9901262897057, 40.7557038291954], [-73.9901785889249, 40.7556320453735], [-73.9903512175956, 40.7553951027597], [-73.9904775630522, 40.7554483295402], [-73.990650183079, 40.7552113810684], [-73.9907039038398, 40.75513764032], [-73.9910194256859, 40.7552708275901], [-73.9911775535715, 40.7553375753649], [-73.9911788276995, 40.7553381130642], [-73.9907278098274, 40.7559586708667], [-73.9904935306109, 40.7562798710412], [-73.9876619172919, 40.7550814234383], [-73.9878930742329, 40.7547576558935], [-73.9883371708405, 40.7541385581938], [-73.9887879961676, 40.7535250434182], [-73.9873117657427, 40.7529006876426], [-73.9874924636435, 40.75216719948], [-73.9876459829201, 40.7514274963556], [-73.9877805445193, 40.7506689784668], [-73.9901352383916, 40.7516670728511], [-73.9903620556466, 40.7513573720295], [-73.9932087513147, 40.7525497997576], [-73.9929808251636, 40.752861667277], [-73.9929811555284, 40.7528618068755], [-73.9934539953608, 40.7530623458218], [-73.9933974440545, 40.7531399463796], [-73.9917023489166, 40.7554663497088], [-73.9916508402843, 40.7555370563764]]], [[[-73.9864762594724, 40.7466741875821], [-73.9886728076492, 40.7436605697051], [-73.9894773340076, 40.7439983325031], [-73.9896203164122, 40.7432357043204], [-73.989684230811, 40.7432628963682], [-73.9906107741539, 40.741992513184], [-73.9923290031371, 40.7427175072207], [-73.9920703983654, 40.7430725614464], [-73.9919125603256, 40.7430060588358], [-73.9898907296174, 40.7457844275184], [-73.989969616536, 40.745817727947], [-73.9886184825774, 40.7476740498135], [-73.986424168284, 40.7467452449319], [-73.9864762594724, 40.7466741875821]]], [[[-73.9829586809031, 40.7517825243796], [-73.9847125984997, 40.7493766542339], [-73.986677043496, 40.7502006037756], [-73.9846457830795, 40.7529912764533], [-73.9828388707561, 40.7522298896336], [-73.9830653890393, 40.7519190126876], [-73.9829077664084, 40.7518524024005], [-73.9829586809031, 40.7517825243796]]]]}, "properties": {"OBJECTID": 252, "Boro": "1", "Status": "Adopted", "ProjectNam": "Midtown South Mixed-Use Plan (MSMX)", "DateAdopte": 1755129600000, "ZR_ULURPno": "250186ZRM", "ZR_Map": "CD4,5-Map 1 (Area 1)", "CD": "4,5", "MIH_Option": "Option 1, Option 2, and  Option 3", "Zoning_Map": "8D", "Project_ID": "2024M0142", "Shape_Leng": 26756.5216036, "Shape__Area": 5255585.4326171875, "Shape__Length": 26756.5216035713}}, {"type": "Feature", "id": 262, "geometry": {"type": "Polygon", "coordinates": [[[-73.9329240977352, 40.6897566892965], [-73.9329422580323, 40.6898489268899], [-73.9329956998922, 40.6901203719369], [-73.9326390911041, 40.6901610506822], [-73.9325856506642, 40.6898896045705], [-73.9325675544081, 40.689797688442], [-73.9329240977352, 40.6897566892965]]]}, "properties": {"OBJECTID": 262, "Boro": "3", "Status": "Adopted", "ProjectNam": "699 - 703 Lexington Avenue Rezoning", "DateAdopte": 1764028800000, "ZR_ULURPno": "250195ZRK", "ZR_Map": "CD3-Map 8 (Area 16)", "CD": "3", "MIH_Option": "Option 1 and Option 3", "Zoning_Map": "17A", "Project_ID": "2024K0346", "Shape_Leng": 467.84095065, "Shape__Area": 13392.035049438477, "Shape__Length": 467.84095065374987}}, {"type": "Feature", "id": 264, "geometry": {"type": "MultiPolygon", "coordinates": [[[[-73.9522284863976, 40.7494709709366], [-73.9449154260368, 40.7480618225826], [-73.9450577163028, 40.7476721557883], [-73.9451970100915, 40.7472728168304], [-73.9476331650399, 40.7477405305439], [-73.9502466189462, 40.7482501051339], [-73.951063243217, 40.7458301154726], [-73.9529471363734, 40.7461937569647], [-73.9527137460834, 40.7468842780029], [-73.9524810230187, 40.7475787970268], [-73.9522529131824, 40.7482433116487], [-73.9522287665383, 40.7483140706419], [-73.9522088594766, 40.7483855887143], [-73.9521932347417, 40.7484577200039], [-73.9521973703887, 40.7485737069536], [-73.9522140233891, 40.7490407498181], [-73.9522148463537, 40.749063829238], [-73.9522284863976, 40.7494709709366]]], [[[-73.9416904045375, 40.7500459914981], [-73.9425515793034, 40.7491049231635], [-73.9429467213658, 40.7493017577451], [-73.9437094159868, 40.7496840647632], [-73.9431422851304, 40.7502644399126], [-73.9428237579366, 40.7506484670419], [-73.942073232531, 40.7502496351443], [-73.9416904045375, 40.7500459914981]]], [[[-73.9406177310697, 40.7530455517951], [-73.9418825922883, 40.7516732034287], [-73.9419879654349, 40.7517433204226], [-73.9427207111231, 40.752045217972], [-73.9438284420724, 40.7525471174915], [-73.9424316374591, 40.7540058796426], [-73.9414078933344, 40.7534671131242], [-73.9406177310697, 40.7530455517951]]]]}, "properties": {"OBJECTID": 264, "Boro": "4", "Status": "Adopted", "ProjectNam": "Long Island City Neighborhood Plan", "DateAdopte": 1762905600000, "ZR_ULURPno": "250177ZRQ", "ZR_Map": "CD1,2-Map 1 (Area 1)", "CD": "1,2", "MIH_Option": "Option 3", "Zoning_Map": "9B", "Project_ID": "2024Q0304", "Shape_Leng": 10622.0531132, "Shape__Area": 1651266.462966919, "Shape__Length": 10622.053113207648}}, {"type": "Feature", "id": 265, "geometry": {"type": "Polygon", "coordinates": [[[-73.9529471363734, 40.7461937569647], [-73.9534277918861, 40.7462866630826], [-73.9536572534259, 40.7455946198069], [-73.9555152730677, 40.7459535136475], [-73.9552829632407, 40.7466452289906], [-73.9550823317203, 40.7472454574805], [-73.9550479227567, 40.7473424034053], [-73.9550172126236, 40.7474289337027], [-73.954960393948, 40.7475976592297], [-73.9548521806955, 40.7479025608036], [-73.9548012429998, 40.7480460833685], [-73.9548548809879, 40.7480571680261], [-73.9548983089948, 40.7480661423768], [-73.9570238780848, 40.7489202326152], [-73.9561672355123, 40.7496799038634], [-73.9560646028666, 40.7497709176564], [-73.9552317331702, 40.7505094812614], [-73.9552276088099, 40.7505131393156], [-73.9549461192954, 40.750762749833], [-73.9538787908648, 40.7503973531761], [-73.9535524600051, 40.750939370003], [-73.9532831706913, 40.7513866352494], [-73.9523654789903, 40.7509285861879], [-73.9522523446559, 40.7508721163342], [-73.9522599921586, 40.7508632252045], [-73.9522649402224, 40.7505745483851], [-73.9522435817585, 40.7499228692764], [-73.9522413013235, 40.7498532871102], [-73.9522284863976, 40.7494709709366], [-73.9522148463537, 40.749063829238], [-73.9522140233891, 40.7490407498181], [-73.9521973703887, 40.7485737069536], [-73.9521932347417, 40.7484577200039], [-73.9522088594766, 40.7483855887143], [-73.9522287665383, 40.7483140706419], [-73.9522529131824, 40.7482433116487], [-73.9524810230187, 40.7475787970268], [-73.9527137460834, 40.7468842780029], [-73.9529471363734, 40.7461937569647]]]}, "properties": {"OBJECTID": 265, "Boro": "4", "Status": "Adopted", "ProjectNam": "Long Island City Neighborhood Plan", "DateAdopte": 1762905600000, "ZR_ULURPno": "250177ZRQ", "ZR_Map": "CD1,2-Map 1 (Area 2)", "CD": "1,2", "MIH_Option": "Option 1 and Option 3", "Zoning_Map": "9B", "Project_ID": "2024Q0304", "Shape_Leng": 6088.48661617, "Shape__Area": 1596479.7682189941, "Shape__Length": 6088.4866161721875}}]}