{"type": "FeatureCollection", "crs": {"type": "name", "properties": {"name": "EPSG:4326"}}, "features": [{"type": "Feature", "id": 46, "geometry": {"type": "Polygon", "coordinates": [[[-74.0188315754905, 40.7046347807731], [-74.0189280488699, 40.704752049397], [-74.018116489367, 40.7045672896386], [-74.0180839554456, 40.7046664113816], [-74.01749248776, 40.704716108389], [-74.015734520111, 40.7092004932299], [-74.0155084601065, 40.7097851717834], [-74.0154911307047, 40.7098266426547], [-74.0154275574456, 40.7099787754377], [-74.0153494842233, 40.7101638607185], [-74.0153068116597, 40.7102650199109], [-74.015209888078, 40.7104947882523], [-74.0151938864625, 40.7105327225926], [-74.0151135528485, 40.7107231606356], [-74.0150379325671, 40.7109095348964], [-74.0149907310375, 40.7110357566745], [-74.0149822085233, 40.7110639716938], [-74.0149765837811, 40.7110851335333], [-74.0149014635145, 40.7113677731515], [-74.0145883828225, 40.7125457012953], [-74.0144308332132, 40.7131384472503], [-74.0143735155212, 40.713354088018], [-74.0143709435952, 40.7133637643267], [-74.014361339367, 40.7133999012191], [-74.0143491620124, 40.7134457135182], [-74.014270656816, 40.7137410637659], [-74.0142543878521, 40.7138022716902], [-74.0142206823639, 40.7139608152611], [-74.0142068969879, 40.714025662734], [-74.0139543455576, 40.7152135958263], [-74.0139537271732, 40.7152163622695], [-74.0139406677579, 40.7152746836122], [-74.0139271909379, 40.7153348708612], [-74.0139271838434, 40.7153349014795], [-74.0114546277101, 40.7149442012632], [-74.0114653610765, 40.7149050523008], [-74.0072649918227, 40.7130161173939], [-74.0063022188661, 40.7141789846648], [-74.0040603807212, 40.7131430742138], [-74.0043594909986, 40.7128222202966], [-74.0043960301078, 40.7127869837412], [-74.0044283705566, 40.7127494462471], [-74.0044562635133, 40.7127098966413], [-74.0044794943681, 40.7126686392319], [-74.0044978843839, 40.7126259914669], [-74.0045112920716, 40.7125822814917], [-74.0045196142782, 40.7125378456238], [-74.0045227869806, 40.7124930257655], [-74.0045207857775, 40.7124481667728], [-74.0045136260772, 40.712403613802], [-74.0045013629782, 40.7123597096545], [-74.0044840908456, 40.7123167921384], [-74.0044619425842, 40.7122751914701], [-74.004435088616, 40.7122352277331], [-74.0044037355686, 40.7121972084157], [-74.0043681246848, 40.7121614260448], [-74.004281360622, 40.7120956226754], [-73.9979848968062, 40.7069949915402], [-73.999349097812, 40.7062326243717], [-73.999900433099, 40.7059245071226], [-74.0000522994095, 40.7058325919334], [-74.002362898325, 40.704328144924], [-74.0046413340792, 40.7028487984339], [-74.0071451387024, 40.7012240924494], [-74.0089921151243, 40.7003900499366], [-74.0117156415786, 40.6997464996257], [-74.0139119059444, 40.6998175153053], [-74.0151194698052, 40.7008221275254], [-74.0151459354173, 40.70084414517], [-74.0151513568284, 40.7008486551219], [-74.0151779947339, 40.7008685664384], [-74.0154735536453, 40.7010948059726], [-74.0156455619725, 40.7012311553745], [-74.0156456874194, 40.7012312562148], [-74.0156632594713, 40.7012453873624], [-74.0156638050476, 40.7012458258375], [-74.015813351599, 40.7013676491786], [-74.0158288787674, 40.7013804595304], [-74.0159420239432, 40.7014747464411], [-74.0160960737148, 40.7016097611148], [-74.0162458581199, 40.7017475277286], [-74.0163912922897, 40.7018879682473], [-74.016532293818, 40.7020310031211], [-74.0167241142782, 40.7022316173519], [-74.0169112100123, 40.7024347997896], [-74.0171333999566, 40.702696013556], [-74.0171335609307, 40.7026962080426], [-74.0171695706106, 40.7027397334244], [-74.0172309648087, 40.7028147422978], [-74.0175025690155, 40.7031191229741], [-74.0180613426686, 40.7037453165385], [-74.0180840993971, 40.7037708199629], [-74.0184495007875, 40.7041803012349], [-74.0186724870709, 40.7044413992815], [-74.0187427160209, 40.7045267671872], [-74.0187676554497, 40.7045570824533], [-74.0188241666767, 40.7046257750666], [-74.0188315754905, 40.7046347807731]]]}, "properties": {"OBJECTID": 46, "SDNAME": "Special Lower Manhattan District", "SDLBL": "LM", "Shape__Area": 18908005.612001, "Shape__Length": 18293.652631644854}}, {"type": "Feature", "id": 69, "geometry": {"type": "Polygon", "coordinates": [[[-73.9667614343796, 40.6976858268313], [-73.9658082492278, 40.6976435108002], [-73.9654115573909, 40.6956417100906], [-73.9663680901353, 40.6956797736804], [-73.9664984351688, 40.6963445486211], [-73.9660350090315, 40.6963971855494], [-73.9661588892131, 40.6970256205187], [-73.9666216723939, 40.6969730558496], [-73.9667614343796, 40.6976858268313]]]}, "properties": {"OBJECTID": 69, "SDNAME": "Special Mixed Use District (MX-27)", "SDLBL": "MX-27", "Shape__Area": 161647.09336853027, "Shape__Length": 2266.5657487486083}}, {"type": "Feature", "id": 92, "geometry": {"type": "Polygon", "coordinates": [[[-73.9882917769392, 40.7346611195382], [-73.989037866629, 40.7335997387687], [-73.9890998207977, 40.7336258548844], [-73.9909888259839, 40.7344220907971], [-73.9910361693282, 40.734442046149], [-73.9920089775169, 40.7348520758549], [-73.9920095102162, 40.7348523001183], [-73.9924257636873, 40.7350277463094], [-73.991890554658, 40.7357489141318], [-73.9918904599344, 40.7357490410968], [-73.9909587118746, 40.7370044832403], [-73.9907343174024, 40.7373068253072], [-73.9906515443425, 40.7376680104751], [-73.9906122038378, 40.7376510209987], [-73.9892568521586, 40.7370654761684], [-73.988404112912, 40.7366970614669], [-73.9883568302611, 40.7366774130191], [-73.9883566100774, 40.7366773220455], [-73.9885734752208, 40.7363838853581], [-73.9887867588364, 40.736095293535], [-73.9890026728971, 40.7358031391472], [-73.9889710117924, 40.7357897077453], [-73.988997339509, 40.735753736771], [-73.9894365406917, 40.7351536658461], [-73.9887044254481, 40.7348427004735], [-73.9882883630969, 40.7346659747308], [-73.9882917769392, 40.7346611195382]]]}, "properties": {"OBJECTID": 92, "SDNAME": "Special Union Square District", "SDLBL": "US", "Shape__Area": 912879.1634674072, "Shape__Length": 4337.384454985999}}, {"type": "Feature", "id": 75, "geometry": {"type": "MultiPolygon", "coordinates": [[[[-73.9531701451753, 40.7140780551942], [-73.9532399064292, 40.7141193737677], [-73.9541062950057, 40.7146571363741], [-73.9544616035812, 40.7148888833972], [-73.9538662401861, 40.7154412113816], [-73.9542165490239, 40.7156563805339], [-73.9551860358184, 40.7162608478397], [-73.9555863099098, 40.7165121994354], [-73.9549926909729, 40.7170604418815], [-73.955526458941, 40.717396825123], [-73.9562068417918, 40.7178222798754], [-73.9556142442698, 40.7183766384848], [-73.9561794420892, 40.7187255622459], [-73.9558851319409, 40.7189962116463], [-73.9549768803683, 40.7198252577736], [-73.9553494317878, 40.7200576605952], [-73.9547558023067, 40.72060865893], [-73.9552110001591, 40.7208903299991], [-73.9553717027169, 40.7209897582639], [-73.9565475238141, 40.7198726931604], [-73.9572264358955, 40.7203009255559], [-73.9575347292662, 40.7200281338178], [-73.958190274429, 40.7204379977036], [-73.9567025163131, 40.7218051008257], [-73.9566929695786, 40.7218138736038], [-73.9560442129789, 40.7214036616682], [-73.9549785516619, 40.7223833350506], [-73.952495702422, 40.7232134412807], [-73.9526922081495, 40.7235558671247], [-73.9526889405752, 40.7235569103733], [-73.9518354348814, 40.7238276819443], [-73.9517325838549, 40.7236443437532], [-73.9516510443855, 40.723498993409], [-73.9516482770769, 40.7234940592554], [-73.9512123303685, 40.7236476409831], [-73.9504520629302, 40.7223097181734], [-73.9508973025477, 40.7221605782735], [-73.9506413539846, 40.7217064939296], [-73.9502446043634, 40.7219492257864], [-73.9499436263527, 40.7221333378368], [-73.9498432842473, 40.722198312778], [-73.949465228033, 40.7223717216319], [-73.9490801994522, 40.7225483265697], [-73.9486090598107, 40.722602925877], [-73.9481664308082, 40.7226631165534], [-73.9481651961638, 40.7226556732846], [-73.9480125962042, 40.7217354221591], [-73.947952471362, 40.7213870399582], [-73.9474895878571, 40.7214441859641], [-73.946894080175, 40.7205535327334], [-73.9464121202279, 40.7199433165367], [-73.9460426670599, 40.720167249428], [-73.9457819385428, 40.7198179316541], [-73.9456129144236, 40.7195914168693], [-73.9455932525948, 40.719618061779], [-73.9455769017789, 40.7196396302738], [-73.9455554063535, 40.7196679978865], [-73.9455375649699, 40.7196915440915], [-73.9454672358543, 40.7197672428021], [-73.9453939844385, 40.7198384942648], [-73.945330527669, 40.7198958383511], [-73.9452855730871, 40.7199364615196], [-73.9451566707695, 40.7200366359684], [-73.9450656162582, 40.7200967961611], [-73.945037341857, 40.7201226318087], [-73.9449428586931, 40.7202081090076], [-73.9449095109515, 40.7202402007422], [-73.9449025613786, 40.7202468891069], [-73.9448989130596, 40.7202504002507], [-73.9448637291059, 40.7203016251305], [-73.9448402581769, 40.7203595355946], [-73.944834362594, 40.7204040792002], [-73.9448372509976, 40.7204464135603], [-73.9448437727163, 40.7204905191629], [-73.9448519198678, 40.72051129513], [-73.9448892513844, 40.7206313212718], [-73.9449456673848, 40.7208127019678], [-73.9448975715254, 40.72081511484], [-73.9447155590743, 40.72082424521], [-73.9447095296944, 40.7209371851758], [-73.9445660330562, 40.7209493847263], [-73.9442059785352, 40.720979995648], [-73.9441471424945, 40.7206393654304], [-73.9441449893466, 40.720626904029], [-73.9441449763943, 40.7206268238773], [-73.9439623483625, 40.7203902287878], [-73.9467392255697, 40.7187162476858], [-73.9469136414271, 40.7186110991147], [-73.9469088239818, 40.7186116092837], [-73.9457506014782, 40.7187342393669], [-73.9457483585376, 40.7187198382511], [-73.9457342463091, 40.7186291970469], [-73.9456361238085, 40.718018853333], [-73.9466545339887, 40.7179151604683], [-73.9465978679573, 40.7175497224123], [-73.947765152736, 40.7174501607846], [-73.9477156948633, 40.7171009438206], [-73.9481852848309, 40.7170556866419], [-73.9481242179731, 40.7166947624774], [-73.9491196793083, 40.7166051574604], [-73.9490706971689, 40.7162537160909], [-73.950091261688, 40.7161490284209], [-73.9501739653653, 40.7161405445128], [-73.9501727217411, 40.7161323097065], [-73.9501674905031, 40.7160976864152], [-73.9501626220016, 40.716065454136], [-73.950161095739, 40.7160553479463], [-73.9500951635554, 40.7156070299277], [-73.9500803023573, 40.7155059735908], [-73.9500746174092, 40.7154673176092], [-73.9500693681378, 40.7154316271975], [-73.9500983165981, 40.715428109747], [-73.9501281498906, 40.7154251482875], [-73.9502070496209, 40.7154173173785], [-73.9513585454152, 40.7153030188462], [-73.9518159292268, 40.7152576147244], [-73.9531701451753, 40.7140780551942]]], [[[-73.9532510292864, 40.7140779818062], [-73.9531701451753, 40.7140780551942], [-73.9530530188009, 40.7140777967725], [-73.9516294912229, 40.7140746464326], [-73.9516250934666, 40.7140746364802], [-73.9516092389553, 40.7139648665615], [-73.9515929252561, 40.7138519149413], [-73.9511175456338, 40.7109651613534], [-73.9511176320288, 40.7109651532855], [-73.9511176049318, 40.7109649875799], [-73.9511660549375, 40.7109602219256], [-73.9519578786267, 40.7108823384919], [-73.9522081615375, 40.7108577191333], [-73.9527098392859, 40.7108083702784], [-73.9529061958793, 40.7107890546613], [-73.9536680247259, 40.710714109872], [-73.9538049957171, 40.7107006347358], [-73.9538892979117, 40.7106923406058], [-73.9547514591964, 40.7106075177638], [-73.9548148501719, 40.7106012805075], [-73.9549948296823, 40.7105835722167], [-73.9550004760826, 40.7105830170075], [-73.9551861042583, 40.710564753209], [-73.9553101249694, 40.7105525508664], [-73.9556477132037, 40.7105193336925], [-73.9556838567234, 40.7105157770849], [-73.9557239376811, 40.7105118329594], [-73.9558211961458, 40.7105022627705], [-73.9560760361503, 40.7104771864955], [-73.9561363533814, 40.7104712508109], [-73.9562141576937, 40.7104635945667], [-73.9564071464424, 40.7104446039856], [-73.956459207668, 40.7104394808684], [-73.9564675334393, 40.7104386618503], [-73.9566019209496, 40.7104254372538], [-73.9566061578011, 40.7104250201133], [-73.9566516435933, 40.7104205436989], [-73.9556386739841, 40.7120172177932], [-73.9556355435548, 40.7120211581234], [-73.9556084650861, 40.7120643992271], [-73.9555167543891, 40.7122108454423], [-73.9554773928142, 40.7122737011993], [-73.9554352280535, 40.71234119619], [-73.9553404870502, 40.7124928541443], [-73.9552727334032, 40.7126013114902], [-73.956598678771, 40.713098624535], [-73.9564035193902, 40.713406605643], [-73.9564035832814, 40.7134066290804], [-73.9564035441897, 40.7134066866983], [-73.9564034968044, 40.7134067587212], [-73.9564048314229, 40.7134072464029], [-73.9568642112122, 40.7135749387596], [-73.9579353396662, 40.7139659361443], [-73.9580477808174, 40.7137814445119], [-73.958050946762, 40.7137830323654], [-73.9592669457735, 40.7143926618046], [-73.9592730559975, 40.7143869250118], [-73.9594701504155, 40.7142018810869], [-73.959480780719, 40.714207092482], [-73.960342445394, 40.714629523998], [-73.9603473281787, 40.7146319183366], [-73.9608845242221, 40.7148952718273], [-73.9605316449694, 40.7152259998854], [-73.9604411418691, 40.7153108203323], [-73.9603762764934, 40.7152861384454], [-73.9600219498857, 40.7151513139822], [-73.959032219008, 40.7148900332038], [-73.95933854408, 40.7150823900048], [-73.9601802967618, 40.7156109597238], [-73.9602469557839, 40.7156528168759], [-73.9614190064946, 40.7163887669534], [-73.9618151247284, 40.7160202525485], [-73.961906476891, 40.7159352656168], [-73.9619071104005, 40.715934675992], [-73.9619978276372, 40.7158502786112], [-73.96228591145, 40.7155822652495], [-73.9625454263406, 40.7153408276404], [-73.962551995286, 40.7153440103804], [-73.9641160397834, 40.7161017792671], [-73.9642196576807, 40.7159962383718], [-73.9644732154164, 40.7157413913825], [-73.9646346930701, 40.7153974965124], [-73.9648758821566, 40.7148838362784], [-73.9649653197256, 40.7146933596118], [-73.9657518146289, 40.7149182691469], [-73.9654176569215, 40.7156216309825], [-73.9658329469105, 40.7157405097938], [-73.9656735766879, 40.7160955498717], [-73.9661251285021, 40.7162273031178], [-73.9661214981507, 40.7162306960734], [-73.9656540263589, 40.716667558155], [-73.9652632695749, 40.7170306221517], [-73.9652662536531, 40.7170320764756], [-73.9653502157702, 40.7170736459177], [-73.9656583932873, 40.7172262234624], [-73.9657343182627, 40.7172638135722], [-73.9657344436838, 40.7172638766452], [-73.9657350696075, 40.717264188408], [-73.9656858550908, 40.7173148724807], [-73.9655545465417, 40.7174501043244], [-73.9655510324312, 40.7174482383163], [-73.9654764658925, 40.7174086421571], [-73.9651663935203, 40.7172439886133], [-73.9650823086473, 40.7171993383552], [-73.9650814946104, 40.7171989058633], [-73.9648204406827, 40.7174381775283], [-73.9647281376412, 40.7175227783434], [-73.9646358177883, 40.7176073934867], [-73.9641272977516, 40.7180734717433], [-73.9617248838975, 40.7203279194056], [-73.9617239827097, 40.7203287637843], [-73.9617211216502, 40.7203314364472], [-73.960536765244, 40.7214380640275], [-73.9592458371412, 40.7206355968412], [-73.9598422041657, 40.7200823979924], [-73.9604353751979, 40.7195290922605], [-73.9590171177716, 40.7186377989707], [-73.9590181918961, 40.7186367475572], [-73.9592962977343, 40.7183646634073], [-73.958373117963, 40.717793462982], [-73.9583705341251, 40.7177918645426], [-73.9585531143361, 40.7176260771323], [-73.9586028624899, 40.7175809047223], [-73.9588938089193, 40.717316993752], [-73.9589826547383, 40.7172384451061], [-73.9598902659592, 40.717815966752], [-73.959899651913, 40.7178072107581], [-73.9607885495375, 40.7169779533201], [-73.959512380762, 40.7161804770645], [-73.9589147921188, 40.7167363287512], [-73.9576277122257, 40.715935510194], [-73.9582158342454, 40.7153794878939], [-73.9582158851744, 40.7153794257771], [-73.9570333921585, 40.7146494896063], [-73.956575274786, 40.7143594991719], [-73.9562706264677, 40.7141666529587], [-73.9561523686112, 40.7141338897244], [-73.9561416055847, 40.7141311552762], [-73.9560863867306, 40.7141194951263], [-73.9559953114593, 40.7141002623633], [-73.9558661423118, 40.7140853418855], [-73.9558360265592, 40.7140818633706], [-73.9558291783592, 40.714081071896], [-73.9554282718276, 40.7140809750168], [-73.9553308310758, 40.7140809516598], [-73.9543404709217, 40.7140799877198], [-73.9533501161888, 40.7140780742284], [-73.9532859569734, 40.7140779500576], [-73.9532510292864, 40.7140779818062]]], [[[-73.9592502447118, 40.7326963600993], [-73.9592437734789, 40.7326353933878], [-73.9592409541776, 40.7326132822062], [-73.9590157442634, 40.7312020324601], [-73.9583265487908, 40.7312631376709], [-73.9578261329674, 40.7313076594437], [-73.957653205775, 40.7302502330965], [-73.957534084724, 40.7295218081898], [-73.9572509259303, 40.7277902102202], [-73.9571738750283, 40.727325440559], [-73.9572184401933, 40.7270489179753], [-73.9572193493437, 40.7270432757228], [-73.9573550417481, 40.7263081890733], [-73.9577866340423, 40.7262694145845], [-73.9586574231592, 40.726192355162], [-73.9587460300552, 40.7267258720101], [-73.9592449904004, 40.7297300306121], [-73.9592381799234, 40.7297306711648], [-73.9592301477455, 40.7297314355549], [-73.958102653055, 40.7298387605273], [-73.9582126022383, 40.7305498358851], [-73.9593449645237, 40.7304425646909], [-73.9593569211669, 40.7304414324695], [-73.9593583015083, 40.7304413014824], [-73.9594907988366, 40.7312427774671], [-73.9600298624446, 40.7345033817035], [-73.9600609936409, 40.7346890111067], [-73.9600619857069, 40.7346949138316], [-73.9592290341568, 40.7347751616118], [-73.9590764868508, 40.7347898569292], [-73.9588958182792, 40.7348051633617], [-73.9588875069424, 40.7347642683186], [-73.9588230939887, 40.7344470854171], [-73.9587626669771, 40.7341040962264], [-73.9588820493104, 40.7340930257399], [-73.9593850011082, 40.7340424416632], [-73.9592732809626, 40.7334195971551], [-73.9592581872997, 40.7333345288969], [-73.9592640060481, 40.7333339942523], [-73.9593177847796, 40.7333290460586], [-73.9593477415643, 40.7333262884744], [-73.9593363119536, 40.7332544031602], [-73.9592925666635, 40.7329792959017], [-73.9592556850528, 40.7327473434087], [-73.9592481814053, 40.7327001451066], [-73.9592502447118, 40.7326963600993]]], [[[-73.9662620210584, 40.714602088425], [-73.9651431287159, 40.7142978516802], [-73.9651363958266, 40.7142958243931], [-73.9657825102958, 40.7128692778386], [-73.9649407390344, 40.7126409585003], [-73.9605818305229, 40.7110456828923], [-73.9609391703106, 40.710480394486], [-73.9649591855288, 40.7116860344317], [-73.9661439064543, 40.7120788108827], [-73.9677303034414, 40.7126045731895], [-73.9674177892504, 40.7133079453005], [-73.9662319291334, 40.7129848046909], [-73.9659515416176, 40.7136087904823], [-73.9666306346039, 40.7137917569698], [-73.9662620210584, 40.714602088425]]], [[[-73.956974536099, 40.7364267422217], [-73.9568680271108, 40.7357321891687], [-73.9585267976489, 40.7355607140711], [-73.9586366657383, 40.7362227710752], [-73.9585342772794, 40.7362778219322], [-73.9584626912343, 40.736316311763], [-73.9576821276176, 40.7367387773616], [-73.9569030581522, 40.7371604250488], [-73.9568983022413, 40.7371608528113], [-73.9554246891698, 40.7372933392265], [-73.9536508334773, 40.737452464748], [-73.9527561477991, 40.7375273134295], [-73.9527478980088, 40.7375280034362], [-73.9526408394169, 40.7368350645509], [-73.9527760535086, 40.7368241987136], [-73.9534851277324, 40.7367589834336], [-73.9535349292311, 40.7367544046429], [-73.9535410656269, 40.7367538334949], [-73.956974536099, 40.7364267422217]]], [[[-73.9582935216889, 40.7341436297905], [-73.9570148270447, 40.7342622536321], [-73.9569609496409, 40.7338979968228], [-73.9555795847037, 40.7340340956093], [-73.955392167273, 40.7340528636011], [-73.9553461023622, 40.7337861548117], [-73.9552703082096, 40.7333456363361], [-73.9553618461154, 40.7333370215702], [-73.9554555435411, 40.7333297646329], [-73.9575778516369, 40.7331286738026], [-73.9575568530798, 40.7329933322601], [-73.958095956478, 40.7329451786879], [-73.9582935216889, 40.7341436297905]]]]}, "properties": {"OBJECTID": 75, "SDNAME": "Special Mixed Use District (MX-8)", "SDLBL": "MX-8", "Shape__Area": 13429719.252120972, "Shape__Length": 56121.01279327251}}, {"type": "Feature", "id": 3, "geometry": {"type": "Polygon", "coordinates": [[[-74.0192135881759, 40.7050325565074], [-74.0194002689788, 40.7058335330082], [-74.0181569010694, 40.7108257104223], [-74.0180209954649, 40.7115634249661], [-74.0176446645068, 40.713605079047], [-74.0176091799043, 40.7137940242274], [-74.0175625045706, 40.7140425560878], [-74.0175332750427, 40.7141944487702], [-74.016659879596, 40.7188432127508], [-74.0132391163133, 40.7183795530271], [-74.0139810825784, 40.7152233514139], [-74.0149897172993, 40.7112166343413], [-74.0155529899059, 40.7098003384867], [-74.0163290149816, 40.707848398989], [-74.0175536346238, 40.7047737480388], [-74.0181219396796, 40.7047328271526], [-74.0181619448544, 40.7046204045629], [-74.0190247281466, 40.7048225345195], [-74.0192135881759, 40.7050325565074]]]}, "properties": {"OBJECTID": 3, "SDNAME": "Special Battery Park City District ", "SDLBL": "BPC", "Shape__Area": 4146409.426712036, "Shape__Length": 11711.872730917397}}, {"type": "Feature", "id": 86, "geometry": {"type": "Polygon", "coordinates": [[[-73.9609564678759, 40.7439867083468], [-73.9584496724963, 40.743507848491], [-73.9593509024759, 40.7408229169033], [-73.95734762747, 40.7404196025968], [-73.9576984571648, 40.7394346938044], [-73.957871575817, 40.7393798839271], [-73.9597242659514, 40.7384505942542], [-73.9607760655018, 40.738057858626], [-73.9621465584302, 40.738246354043], [-73.9638881132895, 40.7384503190508], [-73.962773248882, 40.7414001806956], [-73.960956509311, 40.7439867164654], [-73.9609564678759, 40.7439867083468]]]}, "properties": {"OBJECTID": 86, "SDNAME": "Special Southern Hunters Point District", "SDLBL": "SHP", "Shape__Area": 2309972.7743530273, "Shape__Length": 6724.395510567555}}, {"type": "Feature", "id": 6, "geometry": {"type": "Polygon", "coordinates": [[[-73.9798856193676, 40.6994578153249], [-73.9804815976424, 40.6994812546998], [-73.9804030453794, 40.700838880663], [-73.9807505421655, 40.7012920959267], [-73.980625960703, 40.701981967249], [-73.9801604319182, 40.7019206072128], [-73.9797821305124, 40.7023050960556], [-73.9778819186577, 40.7020022772476], [-73.9765860460802, 40.7064711124585], [-73.9755234780799, 40.7066898012947], [-73.9721100628204, 40.708404501914], [-73.9703104007036, 40.7069268385112], [-73.9702227819638, 40.7052964117059], [-73.9679951675388, 40.7058421759793], [-73.9673438947861, 40.7043713934747], [-73.9672110553435, 40.7042639651758], [-73.9625751098259, 40.7005321710734], [-73.9623955733927, 40.6996502786513], [-73.9628786917867, 40.6980324099599], [-73.9654243182947, 40.697632128897], [-73.9779852437063, 40.6981359520677], [-73.9779141315318, 40.6991874929435], [-73.978893705527, 40.6992269525718], [-73.9793018224158, 40.6995722732118], [-73.9798763537173, 40.6995948725844], [-73.9798856193676, 40.6994578153249]]]}, "properties": {"OBJECTID": 6, "SDNAME": "Special Brooklyn Navy Yard", "SDLBL": "BNY", "Shape__Area": 12102305.747146606, "Shape__Length": 15696.415861371208}}, {"type": "Feature", "id": 49, "geometry": {"type": "Polygon", "coordinates": [[[-73.9810776560977, 40.7692094262451], [-73.9816288173803, 40.768439476722], [-73.9816306895057, 40.7684368610571], [-73.9816341457955, 40.7684321501724], [-73.9816105785154, 40.7684215249723], [-73.9815774132096, 40.7684044209098], [-73.981545957548, 40.7683855422187], [-73.9815383549587, 40.7683802595465], [-73.9815163761403, 40.7683649870816], [-73.9814888217492, 40.768342861784], [-73.981478997061, 40.7683337345003], [-73.9814634400269, 40.7683192834161], [-73.981440360042, 40.7682943735683], [-73.9814197073062, 40.7682682628352], [-73.9814015860098, 40.7682410872108], [-73.9813860896807, 40.7682129880908], [-73.9813733023698, 40.7681841122716], [-73.9813632868066, 40.7681546101487], [-73.9813562997318, 40.7681254696167], [-73.981356099797, 40.7681246357179], [-73.9813517756422, 40.7680943447725], [-73.981350336798, 40.7680638958052], [-73.9813517926918, 40.7680334464057], [-73.9813561337991, 40.7680031577626], [-73.9813633375685, 40.7679731847585], [-73.9813733696038, 40.7679436858761], [-73.9813861730062, 40.7679148141909], [-73.9813905824774, 40.7679068292354], [-73.9814016849561, 40.7678867200763], [-73.9814198213155, 40.7678595502996], [-73.9814404884738, 40.767833445323], [-73.981463582161, 40.767808543806], [-73.9814889767916, 40.7677849735987], [-73.9815165432285, 40.7677628580478], [-73.9815461357559, 40.7677423114924], [-73.9815776015539, 40.7677234428674], [-73.9816107759617, 40.7677063493995], [-73.9816229023364, 40.7677010293564], [-73.9817807755753, 40.7667240500183], [-73.9804053988055, 40.7661485229532], [-73.9791539964681, 40.7656248511377], [-73.9767104272251, 40.7646022307455], [-73.9761474385414, 40.7643666111938], [-73.9756892309623, 40.7649955968925], [-73.9756871240941, 40.7649984879669], [-73.9744788042484, 40.7644916633102], [-73.9747019762651, 40.7641856176063], [-73.9742496381474, 40.7639958504779], [-73.9742278673333, 40.7639867171978], [-73.9741263468563, 40.7639441258035], [-73.9734667700613, 40.7636674110972], [-73.9730550594781, 40.764233408611], [-73.9730546616015, 40.7642332410242], [-73.9725256437381, 40.7640106933238], [-73.9724961461141, 40.7640510847123], [-73.9724830184033, 40.7640690619482], [-73.9720423033801, 40.7646725323714], [-73.9714756339093, 40.7644348593593], [-73.9710382498323, 40.7650351533596], [-73.9700069400195, 40.7646005384933], [-73.9704413287408, 40.7640043674071], [-73.9704380498768, 40.7640029869932], [-73.9704431656251, 40.7640018086449], [-73.9704680758886, 40.7639676598024], [-73.9683370020575, 40.7630737709658], [-73.9692280152193, 40.7618524950439], [-73.9690700831995, 40.7617860594469], [-73.9692933278338, 40.761480058333], [-73.9694504116635, 40.7615433029141], [-73.9699809816312, 40.7608203938042], [-73.9703913337267, 40.7609933356728], [-73.9712998640202, 40.759745390224], [-73.9707335312424, 40.7595059052482], [-73.9705012159841, 40.7598476524585], [-73.9698231212247, 40.7607538628937], [-73.9689611523687, 40.760390577372], [-73.9698713100842, 40.7591412882526], [-73.9692512727681, 40.7588790855802], [-73.9683378495826, 40.760129714308], [-73.9671632401979, 40.7596342789079], [-73.9673908729725, 40.759318497747], [-73.9662423781768, 40.7588362959048], [-73.9666953151303, 40.7582076905681], [-73.967853842605, 40.7586970731695], [-73.9684798022572, 40.7578407090651], [-73.9685400007758, 40.7577583509068], [-73.9689961573212, 40.7571342740577], [-73.9690345271555, 40.7570817777156], [-73.9712824636973, 40.7540061243331], [-73.9711245197948, 40.7539397292906], [-73.9731807280408, 40.7511204462191], [-73.9717250407146, 40.7505060322143], [-73.9722197879893, 40.7498284919795], [-73.973676308533, 40.7504479536248], [-73.9741618122026, 40.7497835584303], [-73.9737031481625, 40.7495886418242], [-73.9741348212796, 40.7489705320933], [-73.9745191741773, 40.7491297642322], [-73.9749627965103, 40.7485038439108], [-73.9762968852724, 40.7490682906639], [-73.9760713587791, 40.7493755868308], [-73.9783135678552, 40.7503240926852], [-73.9785344998727, 40.7500171623238], [-73.9802386236198, 40.7507415678277], [-73.9806948987905, 40.7501202410453], [-73.9821118035426, 40.7507170019412], [-73.9839597603893, 40.7481937539349], [-73.9845622125089, 40.7484470910547], [-73.9845630214915, 40.7484459790378], [-73.9850559154414, 40.7477843636343], [-73.9872500418173, 40.748710090377], [-73.9875242703914, 40.7472119262621], [-73.9875242798735, 40.7472118749342], [-73.9886205898116, 40.7476763886369], [-73.9897143031458, 40.7481397858187], [-73.9911393021181, 40.7487435199344], [-73.9929476659239, 40.7495096343468], [-73.9920577380913, 40.7507321945185], [-73.9939498885843, 40.7515322027674], [-73.9937515540504, 40.7518044241318], [-73.993572292212, 40.7520504640011], [-73.9934659409527, 40.7521949243758], [-73.991092500981, 40.7512080999077], [-73.9908387823633, 40.7515566307553], [-73.9903609320527, 40.7513563723738], [-73.9898994695053, 40.7511629761981], [-73.9901601489035, 40.7508019399652], [-73.9879364853325, 40.7498726719372], [-73.9877855192487, 40.750680512676], [-73.987781767838, 40.7507005800558], [-73.987489700128, 40.7521657313553], [-73.9873445527899, 40.7528938365986], [-73.988813783287, 40.7535139282813], [-73.988805043297, 40.7535259356759], [-73.9876636442567, 40.7550728255967], [-73.9905006307745, 40.7562660650789], [-73.9907262789582, 40.7559564041714], [-73.990728268316, 40.755957242702], [-73.9928956891618, 40.7568707396299], [-73.9935634027198, 40.7571521516245], [-73.9931701081077, 40.7576993416713], [-73.9931368321267, 40.7577450007081], [-73.9931263820734, 40.7577593415301], [-73.9920438429249, 40.7573038440883], [-73.9920350876257, 40.7573158445162], [-73.9920330989689, 40.7573185711085], [-73.9917005148604, 40.7577744544897], [-73.9915504250116, 40.7579801855894], [-73.9915462235273, 40.7579784202912], [-73.9915453626257, 40.757978058225], [-73.9915425957435, 40.7579818509495], [-73.9904171886391, 40.7575084879698], [-73.9890138100821, 40.7594342791603], [-73.9883876907148, 40.7591707111071], [-73.9883622368123, 40.7592070556206], [-73.9883367828821, 40.7592434001282], [-73.9883357668539, 40.7592429722855], [-73.9865680762041, 40.7616706901774], [-73.9862896807143, 40.7620520111829], [-73.9855181145029, 40.7631139105788], [-73.9835900281615, 40.7657494884466], [-73.9833680280856, 40.7660535208225], [-73.9841539675645, 40.7663853223347], [-73.9831699568257, 40.7677352444044], [-73.9831518087607, 40.7677601397827], [-73.9831498194277, 40.7677628689189], [-73.9830841322489, 40.7678529718114], [-73.9842748196654, 40.7683526922157], [-73.9835501850848, 40.7693815587797], [-73.9835399667069, 40.7693772925355], [-73.9820916326434, 40.7687726179849], [-73.9820949628889, 40.7688842485409], [-73.9821179286525, 40.7696539413697], [-73.9821178137735, 40.7696538927247], [-73.9810812575629, 40.7692109648967], [-73.9810776560977, 40.7692094262451]], [[-73.9866814801994, 40.750207287845], [-73.9846916001542, 40.7493801625193], [-73.9828937325129, 40.7518458095146], [-73.9830492542784, 40.7519131002944], [-73.9830483326912, 40.7519143851807], [-73.982904382277, 40.7521149227827], [-73.982828065296, 40.7522212413661], [-73.9846420304627, 40.7529862232151], [-73.9855428716121, 40.7517587774091], [-73.9855429568954, 40.751758660354], [-73.9855430327024, 40.7517585577059], [-73.9866814801994, 40.750207287845]]]}, "properties": {"OBJECTID": 49, "SDNAME": "Special Midtown District", "SDLBL": "MiD", "Shape__Area": 29555251.41177368, "Shape__Length": 43316.31743282332}}, {"type": "Feature", "id": 38, "geometry": {"type": "Polygon", "coordinates": [[[-73.9987954333149, 40.7601607258841], [-73.9931176340145, 40.7577713447414], [-73.9931263820734, 40.7577593415301], [-73.9931368321267, 40.7577450007081], [-73.9931701081077, 40.7576993416713], [-73.9935634027198, 40.7571521516245], [-73.9928956891618, 40.7568707396299], [-73.990728268316, 40.755957242702], [-73.9907262789582, 40.7559564041714], [-73.9911762649911, 40.755338866591], [-73.9916498998671, 40.7555383305233], [-73.9916513661634, 40.7555363170995], [-73.9934501190854, 40.7530676504808], [-73.993446033904, 40.7530659284816], [-73.9929766503484, 40.7528679822696], [-73.9932078821857, 40.7525494341009], [-73.9934659409527, 40.7521949243758], [-73.993572292212, 40.7520504640011], [-73.9937515540504, 40.7518044241318], [-73.9939498885843, 40.7515322027674], [-73.9920577380913, 40.7507321945185], [-73.9929476659239, 40.7495096343468], [-73.9976979015362, 40.75150790694], [-73.9981333356547, 40.7509012052031], [-74.0066436337405, 40.7544566045544], [-74.0052892640966, 40.7563164490114], [-74.0024721135697, 40.7551263270791], [-73.9996944266751, 40.7589262358933], [-74.000242490589, 40.7591564861456], [-73.9997915502604, 40.7597754320629], [-73.9992446457713, 40.7595450950462], [-73.9992488547625, 40.7595380963495], [-73.9987954333149, 40.7601607258841]]]}, "properties": {"OBJECTID": 38, "SDNAME": "Special Hudson Yards District", "SDLBL": "HY", "Shape__Area": 8158346.051742554, "Shape__Length": 14769.334541259215}}, {"type": "Feature", "id": 87, "geometry": {"type": "Polygon", "coordinates": [[[-73.9539412646138, 40.7556743056819], [-73.954571182788, 40.7551014776687], [-73.9565739987789, 40.7532873087183], [-73.9571318688093, 40.7527906599588], [-73.9588858890089, 40.7537379983975], [-73.9565720224248, 40.7563190087653], [-73.9561389474554, 40.7568020558943], [-73.9539412646138, 40.7556743056819]]]}, "properties": {"OBJECTID": 87, "SDNAME": "Special Southern Roosevelt Island District", "SDLBL": "SRI", "Shape__Area": 905473.8921813965, "Shape__Length": 4054.6875714400917}}, {"type": "Feature", "id": 44, "geometry": {"type": "Polygon", "coordinates": [[[-73.9922086567445, 40.7252472559487], [-73.9939503620187, 40.7205012151002], [-73.9948671840026, 40.7183636911765], [-73.9950238180804, 40.7180088556396], [-73.9960579117175, 40.7162315973178], [-73.9987244697341, 40.7171543232349], [-73.999313323193, 40.7175581260261], [-73.9987653358907, 40.718416385074], [-73.9983970028876, 40.7190043397664], [-73.9981607987831, 40.7195977489059], [-73.998160785763, 40.7195977822246], [-73.998537649009, 40.7197783992954], [-73.997635423709, 40.7208351038266], [-73.9976325569394, 40.7208385437152], [-73.9973812118239, 40.7214657676388], [-73.9977367036608, 40.7215904129162], [-73.9970848885411, 40.7223600512708], [-73.9966527316542, 40.723454376549], [-73.9964752473604, 40.723671566035], [-73.9964749431721, 40.7236714435564], [-73.9964714299091, 40.723675742481], [-73.9956958484561, 40.723356406265], [-73.994472530779, 40.7258405027312], [-73.9933451433686, 40.7255450787981], [-73.9927266837021, 40.7253830091771], [-73.9922086567445, 40.7252472559487]]]}, "properties": {"OBJECTID": 44, "SDNAME": "Special Little Italy District", "SDLBL": "LI", "Shape__Area": 3195804.6478881836, "Shape__Length": 8952.595245382678}}, {"type": "Feature", "id": 50, "geometry": {"type": "MultiPolygon", "coordinates": [[[[-73.9905006307745, 40.7562660650789], [-73.9876636442567, 40.7550728255967], [-73.988805043297, 40.7535259356759], [-73.988813783287, 40.7535139282813], [-73.9873445527899, 40.7528938365986], [-73.987489700128, 40.7521657313553], [-73.987781767838, 40.7507005800558], [-73.9877852144213, 40.7506832907049], [-73.9901378267495, 40.7516681590827], [-73.9903609320527, 40.7513563723738], [-73.9908387823633, 40.7515566307553], [-73.9932078821857, 40.7525494341009], [-73.9929766503484, 40.7528679822696], [-73.993446033904, 40.7530659284816], [-73.9934501190854, 40.7530676504808], [-73.9916513661634, 40.7555363170995], [-73.9916524055096, 40.7555393860972], [-73.9916498998671, 40.7555383305233], [-73.9911762649911, 40.755338866591], [-73.9907262789582, 40.7559564041714], [-73.9905006307745, 40.7562660650789]]], [[[-73.9886205898116, 40.7476763886369], [-73.9875242798735, 40.7472118749342], [-73.9875242703914, 40.7472119262621], [-73.986422775965, 40.7467446540354], [-73.9886735244054, 40.7436579772159], [-73.9894524448606, 40.7439853674298], [-73.9895824081488, 40.7432169451383], [-73.9896862829798, 40.7432608154801], [-73.9901493530542, 40.7426254105015], [-73.9906124142961, 40.7419900027035], [-73.9923314236074, 40.7427138225068], [-73.9920784720737, 40.7430614641531], [-73.9919205795802, 40.7429950344906], [-73.9898916770486, 40.7457830633338], [-73.9899781516718, 40.7458213325175], [-73.9886205898116, 40.7476763886369]]], [[[-73.9948285674162, 40.749480301964], [-73.9915981009651, 40.7481148639943], [-73.9911393021181, 40.7487435199344], [-73.9897143031458, 40.7481397858187], [-73.9930996414828, 40.7434910851902], [-73.9949136705246, 40.7442542394053], [-73.9942391134388, 40.7451834946788], [-73.9947147655043, 40.745384348493], [-73.9933574559387, 40.747249386844], [-73.995726998645, 40.7482477293659], [-73.9948285674162, 40.749480301964]]], [[[-73.9828937325129, 40.7518458095146], [-73.9846916001542, 40.7493801625193], [-73.9866814801994, 40.750207287845], [-73.9855430327024, 40.7517585577059], [-73.9855429568954, 40.751758660354], [-73.9855428716121, 40.7517587774091], [-73.9846420304627, 40.7529862232151], [-73.982828065296, 40.7522212413661], [-73.9828267806387, 40.7522206999706], [-73.982904382277, 40.7521149227827], [-73.9830507255665, 40.7519154463288], [-73.9830483326912, 40.7519143851807], [-73.9828937325129, 40.7518458095146]]]]}, "properties": {"OBJECTID": 50, "SDNAME": "Special Midtown South Mixed-Use District", "SDLBL": "MSX", "Shape__Area": 5663057.160247803, "Shape__Length": 22622.701029134838}}, {"type": "Feature", "id": 93, "geometry": {"type": "MultiPolygon", "coordinates": [[[[-73.9688198877445, 40.7505185181446], [-73.9690050007688, 40.7502656366348], [-73.9700407157463, 40.7507051451288], [-73.969683275742, 40.7511966576915], [-73.9690388441788, 40.7509247783975], [-73.9691705070051, 40.7507449133036], [-73.9690916056927, 40.7507116256638], [-73.9691354931925, 40.750651670928], [-73.9688198877445, 40.7505185181446]]], [[[-73.969110331302, 40.7501217442295], [-73.9694602718089, 40.7496436831435], [-73.9696975758213, 40.7497427240549], [-73.9695659140297, 40.7499225915776], [-73.9696450065884, 40.7499556178], [-73.9696011188213, 40.7500155736362], [-73.9703229845608, 40.7503169937915], [-73.9701455190898, 40.7505610292242], [-73.969110331302, 40.7501217442295]]]]}, "properties": {"OBJECTID": 93, "SDNAME": "Special United Nations Development District", "SDLBL": "U", "Shape__Area": 96676.26647949219, "Shape__Length": 2125.460905950354}}, {"type": "Feature", "id": 84, "geometry": {"type": "Polygon", "coordinates": [[[-73.9914694102588, 40.7298641716419], [-73.9917763196789, 40.7294959867541], [-73.9909535856991, 40.7293638357506], [-73.9908742023954, 40.729351084588], [-73.9908749615706, 40.7293481697013], [-73.9908744869022, 40.7293480922199], [-73.9909125012471, 40.7292021110474], [-73.9909183436716, 40.7291796735309], [-73.990918839897, 40.7291779085729], [-73.9910059939878, 40.7288678180021], [-73.9911016587356, 40.7285274411956], [-73.9917935533406, 40.7263840578424], [-73.991793714312, 40.7263841379991], [-73.9922917183388, 40.7266270739297], [-73.9927266837021, 40.7253830091771], [-73.9927289156119, 40.7253766265084], [-73.9933451433686, 40.7255450787981], [-73.9944844064592, 40.7258564963436], [-73.9948741312558, 40.7250323944055], [-73.9952828163248, 40.725150865756], [-73.99616371696, 40.7240731652784], [-73.9954977940822, 40.7237894600006], [-73.9957045491489, 40.7233776361009], [-73.9964746221981, 40.7236977753434], [-73.9966702243677, 40.7234584860806], [-73.9970975962986, 40.7223762814763], [-73.9981968020586, 40.7210719516496], [-73.997635423709, 40.7208351038266], [-73.998537649009, 40.7197783992954], [-73.998160785763, 40.7195977822246], [-73.9981607987831, 40.7195977489059], [-73.9983970028876, 40.7190043397664], [-73.9987653358907, 40.718416385074], [-73.999313323193, 40.7175581260261], [-74.0018849183374, 40.7194054459821], [-74.003448081891, 40.7205160356222], [-74.0054659287609, 40.7219369825611], [-74.0047881174132, 40.7236308739457], [-74.0038325114332, 40.7234569961487], [-74.0031882486408, 40.7242143874628], [-74.0028564808183, 40.7240518857509], [-74.0002363468047, 40.7271888619549], [-73.9967527311002, 40.7254686288321], [-73.9936930233232, 40.7290823040573], [-73.9932642002371, 40.7295887286082], [-73.9932630544319, 40.7295881603202], [-73.992838421603, 40.7300910336905], [-73.9914694102588, 40.7298641716419]]]}, "properties": {"OBJECTID": 84, "SDNAME": "Special SoHo-NoHo Mixed Use District", "SDLBL": "SNX", "Shape__Area": 6365871.880508423, "Shape__Length": 15434.110760439713}}, {"type": "Feature", "id": 90, "geometry": {"type": "MultiPolygon", "coordinates": [[[[-73.9415813464582, 40.8066098451509], [-73.9393145577679, 40.805653552219], [-73.9390853748311, 40.8059640241685], [-73.9348571594807, 40.8041804879835], [-73.9355708707268, 40.8032025013452], [-73.9358392566815, 40.8028347259863], [-73.9358393599157, 40.8028345855659], [-73.9367788083477, 40.8032298816167], [-73.9411345243897, 40.8050731158409], [-73.9411430863992, 40.8050613137724], [-73.9411434067629, 40.805060871791], [-73.9418955533139, 40.8053834833136], [-73.9416587724681, 40.8057076990673], [-73.9425116615989, 40.8060684071391], [-73.9417577939692, 40.8070910383852], [-73.9413520774034, 40.80692006577], [-73.94134892853, 40.8069187377337], [-73.9415813464582, 40.8066098451509]]], [[[-73.9977314764124, 40.7141543907802], [-73.997425695347, 40.713911011456], [-73.9972150407565, 40.7131544019907], [-73.997990196763, 40.7130939875427], [-73.997887565551, 40.7127234975751], [-73.9989399282413, 40.7125552984392], [-73.9989593014088, 40.7133746976538], [-73.9993753799126, 40.713292088703], [-73.9992332772471, 40.7136656115734], [-73.9994795388408, 40.7137901580702], [-73.9994952736317, 40.71401596028], [-73.9987318401248, 40.7140684794018], [-73.9987138902837, 40.7139559793122], [-73.9978699267659, 40.7143043311371], [-73.9977314764124, 40.7141543907802]]], [[[-73.9930614519916, 40.7183105961287], [-73.9934090841382, 40.7176182440124], [-73.9943885259547, 40.7179148717159], [-73.9940365648518, 40.718605913594], [-73.9930614519916, 40.7183105961287]]], [[[-73.9903854444373, 40.7236526249767], [-73.9906129646039, 40.7229697522713], [-73.9918414047108, 40.7233399282408], [-73.9915445903047, 40.724001636301], [-73.9913958613602, 40.7244375339657], [-73.9902569539773, 40.7239573861957], [-73.9903854444373, 40.7236526249767]]], [[[-73.9849427361873, 40.733161822806], [-73.9840351026831, 40.7327864632563], [-73.9842228936222, 40.7325308753339], [-73.9840633933344, 40.7324637691019], [-73.9845974410876, 40.7317285865345], [-73.9847551136723, 40.7317952811601], [-73.9852201361516, 40.731155105442], [-73.9861295753919, 40.731538792863], [-73.9856616327001, 40.7321787260167], [-73.9858193074151, 40.7322454191809], [-73.9852840894709, 40.7329773401676], [-73.9851262134361, 40.7329109200059], [-73.9849427361873, 40.733161822806]]], [[[-73.9809334545861, 40.7386889375249], [-73.9800016202694, 40.7383022203904], [-73.9801815608837, 40.738055169296], [-73.9800236921161, 40.7379887241782], [-73.9805430829983, 40.7372756109557], [-73.981787818026, 40.7378000784087], [-73.9812683501264, 40.7385125794304], [-73.9811104791912, 40.7384461358067], [-73.9809334545861, 40.7386889375249]]], [[[-73.978379627451, 40.7405290598516], [-73.9790529956047, 40.7396046125778], [-73.9799814496852, 40.7399946442915], [-73.9793090963644, 40.7409167648098], [-73.978379627451, 40.7405290598516]]], [[[-73.9759092393827, 40.7455876940038], [-73.9748718937876, 40.7451441078691], [-73.9757351129554, 40.7439455715045], [-73.9767863812079, 40.7443828464995], [-73.9767864119877, 40.7443828591128], [-73.976610945547, 40.7446234984903], [-73.9766090395573, 40.7446261140757], [-73.9767668543885, 40.7446924323249], [-73.9767669775077, 40.7446924836786], [-73.9762455033789, 40.7454105333037], [-73.9760899613409, 40.7453423966958], [-73.9760899246414, 40.74534238228], [-73.9759092393827, 40.7455876940038]]], [[[-73.9733556042587, 40.747422640606], [-73.9739856739039, 40.746556099275], [-73.9749159980923, 40.7469535578036], [-73.9742882366909, 40.7478158831137], [-73.9733556042587, 40.747422640606]]], [[[-73.9687523955266, 40.7537526993057], [-73.9720022107406, 40.7492838923692], [-73.9730921070499, 40.7497422036204], [-73.9728375759002, 40.7500918131429], [-73.9725723731084, 40.7504560761835], [-73.9724144671413, 40.7503896414598], [-73.972213332317, 40.7506659017162], [-73.9721873651359, 40.7507015671979], [-73.9705917252328, 40.7528930879616], [-73.9707496957452, 40.7529594414284], [-73.9702910380227, 40.7535893539162], [-73.9701330972802, 40.7535229584112], [-73.9696810677676, 40.7541437498183], [-73.9687523955266, 40.7537526993057]]], [[[-73.9629337413068, 40.7615773613413], [-73.9638021137807, 40.7603872538612], [-73.9635586479389, 40.7602846546301], [-73.9647722969942, 40.7586249971052], [-73.9650886941333, 40.7587583654677], [-73.9669140277124, 40.7562542100664], [-73.9688839427036, 40.7570868448087], [-73.9689646073038, 40.7571209389853], [-73.9700882063206, 40.7575958303676], [-73.9696313782728, 40.7582173079598], [-73.9685400007758, 40.7577583509068], [-73.9684235240803, 40.757709367579], [-73.9673727634361, 40.7572674733282], [-73.9660166803692, 40.7591495233591], [-73.9661745355393, 40.7592160604023], [-73.9656548877991, 40.7599372264466], [-73.9654953070706, 40.7598730826246], [-73.9650421128062, 40.7605020090014], [-73.9652001894622, 40.7605682412613], [-73.9649745804379, 40.760881329748], [-73.9649227975667, 40.7608599747317], [-73.9649214690078, 40.7608617987499], [-73.9640329723562, 40.762034041387], [-73.9629337413068, 40.7615773613413]]], [[[-73.9588235247551, 40.7672078901188], [-73.9594640458316, 40.7663305220262], [-73.9605556409977, 40.7667895861416], [-73.9599136206012, 40.7676675171298], [-73.9588235247551, 40.7672078901188]]], [[[-73.9584654232312, 40.769647755929], [-73.9573774817063, 40.7691885420952], [-73.9575570477191, 40.768942597961], [-73.9574782278626, 40.7689091683159], [-73.9580085326604, 40.7681828183162], [-73.9580874420184, 40.7682161233653], [-73.9582723218666, 40.767962891337], [-73.9593607959177, 40.7684234567588], [-73.9591763305415, 40.7686756920035], [-73.9592552410674, 40.7687089962503], [-73.9587228126307, 40.7694370216015], [-73.9586439916039, 40.7694035927563], [-73.9584654232312, 40.769647755929]]], [[[-73.9522091093639, 40.7762732445703], [-73.9533147549459, 40.7747643000749], [-73.9543961123976, 40.7752209954286], [-73.9532983631796, 40.7767321911382], [-73.9522091093639, 40.7762732445703]]], [[[-73.950938222247, 40.7780076036519], [-73.9516964911221, 40.7769728187242], [-73.9527889109376, 40.777433491343], [-73.9520339876837, 40.7784726702215], [-73.950938222247, 40.7780076036519]]], [[[-73.9471105800716, 40.7850555677297], [-73.9460143880431, 40.7845943448142], [-73.9467222767427, 40.7836343854728], [-73.9468010683052, 40.7836678782137], [-73.9479030092235, 40.7821669333564], [-73.9489983551382, 40.782628941365], [-73.9478946721126, 40.7841327395784], [-73.9479734636699, 40.7841662315146], [-73.9474484231276, 40.7848815877713], [-73.9472906052859, 40.7848149200041], [-73.9471105800716, 40.7850555677297]]], [[[-73.9410126614054, 40.7917167670734], [-73.9419449873683, 40.7904295269856], [-73.9419885764417, 40.7904479128473], [-73.9426967558607, 40.7894675360152], [-73.9427068624603, 40.789453542751], [-73.943621466755, 40.7898401862145], [-73.9436124838779, 40.7898523259763], [-73.9429025999475, 40.7908334504405], [-73.9429030358078, 40.7908336343586], [-73.942827374574, 40.7909374164941], [-73.9428186770517, 40.7909494365669], [-73.9428186261225, 40.7909494149296], [-73.9415038158376, 40.7927528317564], [-73.9415046496734, 40.7927531842753], [-73.9408088566401, 40.7937082447993], [-73.9408087630697, 40.7937082051292], [-73.9398599835621, 40.7933081619466], [-73.9404947677602, 40.7924317856646], [-73.9410126614054, 40.7917167670734]]], [[[-73.9364053846753, 40.7997858983098], [-73.9358481647794, 40.7995502079619], [-73.9358119108139, 40.799599862943], [-73.9354014878997, 40.799426514422], [-73.9364185184586, 40.7980359815293], [-73.937784688823, 40.7961550764295], [-73.9377846224933, 40.7961550484781], [-73.9380655362578, 40.7957681539881], [-73.9390037004971, 40.7961644294602], [-73.9387529017523, 40.7965104243934], [-73.9387530474426, 40.7965104857048], [-73.9387218799254, 40.7965532203805], [-73.9385085907608, 40.7968456684534], [-73.9379799518725, 40.7975704894233], [-73.9372836067546, 40.7985163957309], [-73.9368274371256, 40.7991401767564], [-73.936864594622, 40.7991563205604], [-73.9364053846753, 40.7997858983098]]]]}, "properties": {"OBJECTID": 90, "SDNAME": "Special Transit Land Use District", "SDLBL": "TA", "Shape__Area": 5848565.342697144, "Shape__Length": 47367.59937051832}}, {"type": "Feature", "id": 73, "geometry": {"type": "Polygon", "coordinates": [[[-74.0073223642548, 40.7310115231523], [-74.007438369058, 40.7302933853231], [-74.0090515758909, 40.730448902884], [-74.008969940812, 40.7308738862962], [-74.0080855242161, 40.7307898812332], [-74.0080078516999, 40.7310766374052], [-74.0073223642548, 40.7310115231523]]]}, "properties": {"OBJECTID": 73, "SDNAME": "Special Mixed Use District (MX-6)", "SDLBL": "MX-6", "Shape__Area": 91230.90509033203, "Shape__Length": 1415.9203729286428}}, {"type": "Feature", "id": 25, "geometry": {"type": "Polygon", "coordinates": [[[-73.9211899258923, 40.6888473818463], [-73.9212950024674, 40.6888357011499], [-73.9378918943139, 40.6982417605305], [-73.9412933925387, 40.7001482171448], [-73.9411659836505, 40.7002981243334], [-73.9212141367647, 40.6890172776675], [-73.9211800688589, 40.6888484791256], [-73.9211899258923, 40.6888473818463]]]}, "properties": {"OBJECTID": 25, "SDNAME": "Special Enhanced Commercial District 4", "SDLBL": "EC-4", "Shape__Area": 436993.2341308594, "Shape__Length": 13961.152547956084}}, {"type": "Feature", "id": 36, "geometry": {"type": "MultiPolygon", "coordinates": [[[[-74.0149760912584, 40.7278414989861], [-74.0143437061553, 40.7311885697089], [-74.0111327064078, 40.7308836967109], [-74.0114632543437, 40.7275079684274], [-74.0149760912584, 40.7278414989861]]], [[[-74.0118995059524, 40.7453588980253], [-74.0113469772357, 40.7484180168812], [-74.008187400448, 40.7480908301436], [-74.0087357509943, 40.7450312790797], [-74.0118995059524, 40.7453588980253]]], [[[-74.0093487129404, 40.7289956174633], [-74.0096709943032, 40.7273219446072], [-74.010723658381, 40.7274330372056], [-74.0106685960932, 40.7279287851152], [-74.0105376650284, 40.7291075848896], [-74.0104572799862, 40.7298312869742], [-74.009211703209, 40.7297071132752], [-74.0093487129404, 40.7289956174633]]], [[[-74.004328079741, 40.752671895507], [-74.0061168074885, 40.7534209045817], [-74.0058959422595, 40.7537359382052], [-74.0050997959805, 40.7534042704509], [-74.0048877210359, 40.7536736254031], [-74.0038940140099, 40.7532523274945], [-74.004328079741, 40.752671895507]]], [[[-74.0043315750553, 40.7526672208499], [-74.004328079741, 40.752671895507], [-74.0042940214084, 40.752657633671], [-74.0043315750553, 40.7526672208499]]]]}, "properties": {"OBJECTID": 36, "SDNAME": "Special Hudson River Park District", "SDLBL": "HRP", "Shape__Area": 2543112.9290161133, "Shape__Length": 12403.338480875002}}, {"type": "Feature", "id": 62, "geometry": {"type": "MultiPolygon", "coordinates": [[[[-73.9865435243068, 40.7047684518121], [-73.9865719295382, 40.7044214231185], [-73.986561922502, 40.7044209563863], [-73.9845849662323, 40.7043527083061], [-73.9846251196977, 40.7036978047552], [-73.9841627296467, 40.7036822739816], [-73.9841814213815, 40.7033455571529], [-73.983821127383, 40.7033330908241], [-73.9838389840618, 40.7030114791054], [-73.9840969964022, 40.7030205300617], [-73.9841090656619, 40.7030209540684], [-73.9841455732078, 40.7026921191543], [-73.9843103521156, 40.7026979383253], [-73.9843105694757, 40.7026944425674], [-73.9843326203017, 40.7023491028262], [-73.9847062951867, 40.7023620024809], [-73.9847832879269, 40.7008823785687], [-73.9856342968297, 40.7009119661775], [-73.9855976436226, 40.7014935231415], [-73.9903060789005, 40.7016700579013], [-73.9902467996024, 40.7025425652992], [-73.9925832105243, 40.7026008495478], [-73.9925517419468, 40.7033185185983], [-73.9906778656628, 40.7032697409802], [-73.9906757541918, 40.7032395268342], [-73.9887600683526, 40.7031825559621], [-73.9887518351787, 40.7031822994126], [-73.9887513180908, 40.7031822840534], [-73.9888055009304, 40.7032694723938], [-73.9887747755155, 40.7035816795702], [-73.9888180063243, 40.7038448304463], [-73.9888181577105, 40.7038452735129], [-73.9885012122063, 40.7038325513806], [-73.9884552977891, 40.7044988876868], [-73.9875106527997, 40.7044680852381], [-73.9875002240496, 40.7048045387033], [-73.9865435243068, 40.7047684518121]]], [[[-73.9868030605687, 40.7001872171771], [-73.9868649163096, 40.6992294690786], [-73.9878151749782, 40.6992637759406], [-73.9877600472154, 40.7002173693955], [-73.9868030605687, 40.7001872171771]]]]}, "properties": {"OBJECTID": 62, "SDNAME": "Special Mixed Use District (MX-2)", "SDLBL": "MX-2", "Shape__Area": 1832654.410308838, "Shape__Length": 8899.128768521043}}, {"type": "Feature", "id": 42, "geometry": {"type": "Polygon", "coordinates": [[[-73.9988745996898, 40.7337197945765], [-73.9966129941867, 40.7327644028918], [-73.9968318017036, 40.7324640778732], [-73.9969771439143, 40.7325251803691], [-73.9971194123966, 40.7323321429331], [-73.9978707237132, 40.7326499117407], [-73.9979844899173, 40.7325003915773], [-73.9993414141704, 40.7330780185578], [-73.9996080019582, 40.7327115092817], [-74.0005276389264, 40.7331620789526], [-74.000530908611, 40.7331636764391], [-73.9998894418233, 40.7340457812636], [-73.9996169684883, 40.7340849978166], [-73.999984386555, 40.7346957356639], [-73.9988461744064, 40.7348556124183], [-73.9982396950719, 40.7345926365859], [-73.9988745996898, 40.7337197945765]]]}, "properties": {"OBJECTID": 42, "SDNAME": "Special Limited Commercial District", "SDLBL": "LC", "Shape__Area": 412882.3165740967, "Shape__Length": 3724.1834057866813}}, {"type": "Feature", "id": 82, "geometry": {"type": "Polygon", "coordinates": [[[-74.0046602821846, 40.6921634832401], [-74.003638391374, 40.693742859743], [-74.0027062559345, 40.6952438261329], [-74.0025140263134, 40.6955533520523], [-74.0016037717224, 40.6970189959851], [-73.9993028435621, 40.7007001385769], [-73.9971739172628, 40.7029516725342], [-73.9968765914292, 40.7030992749685], [-73.9967134899558, 40.7031802435602], [-73.9964551059102, 40.7033085120158], [-73.9964117601787, 40.703330030206], [-73.9964144925624, 40.7015209944703], [-73.9964168812424, 40.6999401616229], [-73.9964169008924, 40.6999267809117], [-73.9985617325733, 40.6954232249033], [-73.9985924932676, 40.6954067837204], [-74.0004398238621, 40.6944194322382], [-74.0046602821846, 40.6921634832401]]]}, "properties": {"OBJECTID": 82, "SDNAME": "Special Scenic View District ", "SDLBL": "SV-1", "Shape__Area": 3019385.9878692627, "Shape__Length": 9761.390011017143}}, {"type": "Feature", "id": 45, "geometry": {"type": "Polygon", "coordinates": [[[-73.9325809418331, 40.7558305515983], [-73.9322952284762, 40.7561828266292], [-73.9311305841111, 40.7556472764252], [-73.9304380909746, 40.7564833778596], [-73.9288110324461, 40.755702935019], [-73.9285420960551, 40.7560258825569], [-73.9281551552063, 40.7558441377651], [-73.9281546486204, 40.7558439006162], [-73.9291850034097, 40.7545715143186], [-73.9295424765826, 40.7541300569962], [-73.9287840187638, 40.7537042600372], [-73.9287831749565, 40.7537037858494], [-73.9280261664952, 40.7532804467477], [-73.9272673789528, 40.7528555076201], [-73.9263941601723, 40.7523695207301], [-73.9264371304019, 40.7520800966787], [-73.9279094851081, 40.7520590902981], [-73.9287435690849, 40.752049919825], [-73.9301557484617, 40.7520204187559], [-73.9312664933122, 40.7520008074769], [-73.9319058515912, 40.751985474266], [-73.9321462413912, 40.7519706010781], [-73.9324617319692, 40.7519425394078], [-73.9327193347357, 40.7519001133227], [-73.9329325615608, 40.7518541821781], [-73.9331179823516, 40.7518104317324], [-73.9333977055887, 40.7517271952252], [-73.9336509988519, 40.7516433448818], [-73.9338336343733, 40.7516130218285], [-73.9340172560961, 40.7514787022907], [-73.9342037937768, 40.7513501869857], [-73.93441730944, 40.7512185205595], [-73.9347440044769, 40.7509873291192], [-73.9347475313092, 40.7509892221803], [-73.9352555573534, 40.7505305189847], [-73.9352565516864, 40.7505296334454], [-73.9361245225233, 40.7497560589621], [-73.9358310771484, 40.7496198743686], [-73.935398728767, 40.7494192222932], [-73.9353932607089, 40.7494166843007], [-73.9353558439082, 40.7493928773304], [-73.935406090963, 40.7493330371467], [-73.9382737487346, 40.7473241745664], [-73.9396375290138, 40.7463685987664], [-73.9399836205879, 40.7461753930735], [-73.9400026540859, 40.746164767103], [-73.9405176875396, 40.7458772448396], [-73.9405181163729, 40.7458770055262], [-73.9421470565414, 40.7451246224128], [-73.9444897979445, 40.7440424743522], [-73.9453340791189, 40.7437110800083], [-73.9460413959774, 40.7447443275535], [-73.9460421102765, 40.7447453697748], [-73.9488333298733, 40.7436965946925], [-73.948904794085, 40.7434810197984], [-73.9489229404317, 40.7434262797145], [-73.9489270778184, 40.7434132304991], [-73.9489753215549, 40.7432759362474], [-73.9492317163211, 40.7425312841609], [-73.9493214877584, 40.7422024872556], [-73.9493840885366, 40.7419597236045], [-73.9494269906865, 40.7418254605979], [-73.949478851212, 40.7416355906706], [-73.9498658114719, 40.7416615313784], [-73.9501832461623, 40.7416562435583], [-73.9505452860177, 40.7416211339123], [-73.9509822488252, 40.7415535016978], [-73.9512729733093, 40.7414925877704], [-73.9516510761325, 40.7414371362795], [-73.9518864888387, 40.7414155326336], [-73.9518561157115, 40.7414941891663], [-73.9518011210566, 40.7416643854693], [-73.9517836101246, 40.7417121167359], [-73.9520085622, 40.7417153219411], [-73.9527570091551, 40.7417726641022], [-73.9531032741291, 40.7418153212647], [-73.9543570952319, 40.7420512715999], [-73.954357510492, 40.7420499975466], [-73.9545861177663, 40.7413493653386], [-73.9545879822433, 40.7413497271772], [-73.9562256947791, 40.7416672614976], [-73.9564547058242, 40.7417116622736], [-73.9569016684834, 40.7417983178144], [-73.9568649601796, 40.741934924537], [-73.9568649494994, 40.7419349623543], [-73.9576997770124, 40.7420981557353], [-73.9581425509321, 40.7420461808284], [-73.9588921435911, 40.7421896710787], [-73.958427550082, 40.7435735649178], [-73.957936393569, 40.743478450637], [-73.9577200335009, 40.7441747578288], [-73.9562091404385, 40.7438798130619], [-73.9550511292063, 40.7473423731388], [-73.9548154498551, 40.7480490191904], [-73.9548983089949, 40.7480661423768], [-73.9570238804549, 40.7489202299145], [-73.9549461192955, 40.750762749833], [-73.9539443370389, 40.7517887108965], [-73.9525870961058, 40.7531791114776], [-73.9520161697622, 40.7538538537217], [-73.9506713828651, 40.7554883203778], [-73.9489788064028, 40.7546751298872], [-73.9494153833972, 40.7541684457589], [-73.9492866293471, 40.7541657017533], [-73.9491583364844, 40.7541569793024], [-73.9490309844103, 40.7541423110135], [-73.9489050492082, 40.7541217517215], [-73.9487810016636, 40.7540953782837], [-73.948659305504, 40.7540632892924], [-73.9485404156645, 40.7540256047066], [-73.9484247765877, 40.7539824654029], [-73.9458959859285, 40.7528777040112], [-73.9451021409179, 40.7524762268578], [-73.9446397687079, 40.7522750468544], [-73.9442505486808, 40.7521075982512], [-73.9439297601413, 40.7524348341307], [-73.943666411358, 40.752716359608], [-73.9406945244996, 40.7558128266953], [-73.9389339443712, 40.7548729009954], [-73.939177203019, 40.7546088041937], [-73.9384229378405, 40.7542200288403], [-73.9378176389892, 40.754880025673], [-73.9374336958902, 40.7546753300382], [-73.9353902563453, 40.7569026275446], [-73.9357723541185, 40.7570996971077], [-73.9354902977909, 40.7574110990843], [-73.9325809418331, 40.7558305515983]]]}, "properties": {"OBJECTID": 45, "SDNAME": "Special Long Island City Mixed Use District ", "SDLBL": "LIC", "Shape__Area": 23325934.601673484, "Shape__Length": 29758.027401049632}}, {"type": "Feature", "id": 71, "geometry": {"type": "Polygon", "coordinates": [[[-73.9561119554514, 40.6969359337397], [-73.9560949759936, 40.6968495194651], [-73.9560802658053, 40.6968512311307], [-73.956010871675, 40.696859218293], [-73.9556387649376, 40.6969020443431], [-73.9551984602455, 40.6946962602488], [-73.956143798394, 40.6945860107339], [-73.9562141861176, 40.6949422822679], [-73.9563837048902, 40.6949219653234], [-73.9576300615487, 40.6947808657518], [-73.9579238258568, 40.6963232504087], [-73.9588437399244, 40.6962171135953], [-73.9589041337076, 40.6965244270563], [-73.9584370323966, 40.6965791635932], [-73.9586386349775, 40.6975826784186], [-73.9587501941549, 40.6980741038726], [-73.9587366977624, 40.6980757316643], [-73.9578311115034, 40.6981849634155], [-73.9579608313912, 40.6988282568794], [-73.9566093344719, 40.699036015958], [-73.9565800035556, 40.6990405245694], [-73.9565266150733, 40.6990461605363], [-73.9565150922715, 40.698987517512], [-73.9565096769995, 40.6989599552812], [-73.956505517665, 40.6989387898649], [-73.9564553122269, 40.6986832972839], [-73.9564460608255, 40.6986362185907], [-73.9563387243065, 40.6980899837361], [-73.9563204423652, 40.6979969493455], [-73.9562202646589, 40.6974871373859], [-73.956192526823, 40.6973459741721], [-73.9561884054265, 40.6973249987625], [-73.9561220200346, 40.6969871596413], [-73.956116152268, 40.6969572955018], [-73.9561152077178, 40.6969524891052], [-73.9561128716977, 40.6969405996455], [-73.9561119554514, 40.6969359337397]]]}, "properties": {"OBJECTID": 71, "SDNAME": "Special Mixed Use District (MX-4)", "SDLBL": "MX-4", "Shape__Area": 977832.36668396, "Shape__Length": 5065.8038041083655}}, {"type": "Feature", "id": 94, "geometry": {"type": "Polygon", "coordinates": [[[-74.0063775334236, 40.744653360573], [-74.0049604891639, 40.7440535324864], [-74.0053850701505, 40.7434676516923], [-74.0053061617367, 40.7434343852254], [-74.0057329128149, 40.7428454998064], [-74.0044167579542, 40.7422923763193], [-74.0051022248236, 40.7413220262591], [-74.0067563883967, 40.7420174198912], [-74.0070288202882, 40.7416432698569], [-74.0082136480258, 40.7421405865705], [-74.0068141137704, 40.7440662483051], [-74.0068150989011, 40.7440666678829], [-74.0082538860592, 40.7446801962194], [-74.0076044731622, 40.7481049063109], [-74.0056338283785, 40.7507983373448], [-74.0077959853442, 40.7517098312814], [-74.0072722638547, 40.7531007256288], [-74.004729903821, 40.752033715523], [-74.0042782125492, 40.7526510137409], [-74.0038280686935, 40.7532647818995], [-74.0009814496614, 40.7520755325763], [-74.0063775334236, 40.744653360573]]]}, "properties": {"OBJECTID": 94, "SDNAME": "Special West Chelsea District ", "SDLBL": "WCh", "Shape__Area": 3777727.744506836, "Shape__Length": 12998.144903588141}}, {"type": "Feature", "id": 17, "geometry": {"type": "Polygon", "coordinates": [[[-73.981793624498, 40.6920337211953], [-73.9815709684183, 40.6920253479088], [-73.9813738373569, 40.6906569421321], [-73.9805465581895, 40.6906563027935], [-73.9804327278692, 40.6899086835805], [-73.978628250527, 40.6898389961037], [-73.9783503286787, 40.6878800119864], [-73.9775010941329, 40.6875433811667], [-73.9770257600977, 40.6852092373278], [-73.9752465381358, 40.6854138514817], [-73.9752464944462, 40.6854136362495], [-73.9749523935455, 40.6839829953062], [-73.9739308863543, 40.6837673618577], [-73.9737893794132, 40.6830636535252], [-73.9759312447523, 40.6835135131262], [-73.9762060414492, 40.6827515533485], [-73.9765525237116, 40.6828240816427], [-73.9766419910763, 40.682948598631], [-73.978739505581, 40.6837647954478], [-73.9785340241783, 40.6840647302613], [-73.9805130682312, 40.6848269424848], [-73.9807124682729, 40.6845324719693], [-73.9811322554934, 40.6846958038498], [-73.9809331979443, 40.68498874517], [-73.9867989461976, 40.6872792626043], [-73.9871615338715, 40.687422418662], [-73.9871699669497, 40.6874249401402], [-73.9873130076205, 40.6874677051825], [-73.9893214285038, 40.6882584294495], [-73.989519469644, 40.6883289155429], [-73.9921482182217, 40.6892841041733], [-73.9921497844815, 40.6892846806087], [-73.9922839624837, 40.689036862061], [-73.9922843009006, 40.6890362362268], [-73.992627380207, 40.6891608690682], [-73.9923669929289, 40.6896983875], [-73.9928401039238, 40.6898285294815], [-73.9919285954682, 40.6917552416981], [-73.993858179629, 40.6922761726077], [-73.993007412126, 40.6940639927794], [-73.9930071896521, 40.6940644592316], [-73.9919593592496, 40.6962662491278], [-73.9919582719687, 40.6962659608877], [-73.9919576922434, 40.6962658068596], [-73.9915371329658, 40.6961543634801], [-73.9914636509668, 40.6963036450506], [-73.981554500126, 40.6959299235989], [-73.9815907939905, 40.6951981312901], [-73.9824301759001, 40.6952222449325], [-73.9824321339695, 40.6952223001626], [-73.9824340092199, 40.6952223544796], [-73.9825125625072, 40.6936237533901], [-73.979170486323, 40.6934965804736], [-73.9790845751694, 40.6928900180132], [-73.9790845669075, 40.6928899549758], [-73.9809278079396, 40.6929533011733], [-73.9809438560824, 40.6925037874945], [-73.9817721792887, 40.6925343157717], [-73.981793624498, 40.6920337211953]]]}, "properties": {"OBJECTID": 17, "SDNAME": "Special Downtown Brooklyn District ", "SDLBL": "DB", "Shape__Area": 12714269.208450317, "Shape__Length": 20960.21528939846}}, {"type": "Feature", "id": 31, "geometry": {"type": "Polygon", "coordinates": [[[-74.0206247535799, 40.6916491272653], [-74.0204934461888, 40.6917692161556], [-74.020205127703, 40.6920328986903], [-74.0199237681023, 40.6927119787983], [-74.0198407142277, 40.6928990414284], [-74.0198338886957, 40.6929497973243], [-74.0198172265216, 40.6929992149504], [-74.0197689715452, 40.6930784377846], [-74.0197180747201, 40.6931300612254], [-74.0196645908317, 40.6931631444219], [-74.019603929003, 40.6931880386501], [-74.0195032679635, 40.693213438517], [-74.0194116002028, 40.6932288284767], [-74.0192441437602, 40.6932338805661], [-74.0188070877796, 40.6932092805719], [-74.0186340547159, 40.6932118634781], [-74.0169407740387, 40.69332474519], [-74.0167648415303, 40.6933442301433], [-74.0154050412837, 40.6930747498851], [-74.0153561142267, 40.6932331053434], [-74.0154106167833, 40.6932469263353], [-74.0153906479993, 40.6933063871829], [-74.0153273281311, 40.6932941423538], [-74.0151762718046, 40.6932649326231], [-74.0151907929237, 40.6932068566202], [-74.0152561940283, 40.6932151434937], [-74.015310610522, 40.6930552951972], [-74.0152609608318, 40.6930450665613], [-74.0151217567358, 40.6931958029106], [-74.0151635448643, 40.693216538028], [-74.0151254060247, 40.6932663216081], [-74.0149328174196, 40.6931640232655], [-74.0149800411386, 40.6931239181811], [-74.0150309139836, 40.6931543317786], [-74.0151575725355, 40.6930237668836], [-74.0149218362506, 40.6929752015074], [-74.0148868588813, 40.6929679956297], [-74.0147839831259, 40.6929468000095], [-74.0142226807359, 40.6928311575285], [-74.0141878807479, 40.6928117377572], [-74.0141661717607, 40.6927964492255], [-74.014146414556, 40.6927796972688], [-74.0141287786681, 40.692761625635], [-74.0141134154279, 40.6927423893959], [-74.0134670620028, 40.692143214089], [-74.0134602524634, 40.6921386195671], [-74.0133357798254, 40.6920091762861], [-74.0133343819559, 40.6920058886745], [-74.0133269142657, 40.691993454353], [-74.0133176600813, 40.6919807491834], [-74.0132833554266, 40.6919499601002], [-74.0132762687283, 40.6919435987924], [-74.0132676543237, 40.6919354321314], [-74.0132662106993, 40.6919340545127], [-74.0132567360396, 40.691925068483], [-74.0131880146865, 40.691966180305], [-74.0129137369095, 40.6916989832204], [-74.0129294535203, 40.6916843571206], [-74.0128613206398, 40.691611242182], [-74.0128956012804, 40.6915870739729], [-74.0128983337943, 40.6915851483693], [-74.0128966334141, 40.6915835357407], [-74.0128766477398, 40.6915645821755], [-74.0128669223278, 40.6915553530028], [-74.0128380431145, 40.6915279590139], [-74.0128174007511, 40.6915083787543], [-74.0128038844039, 40.6915031869993], [-74.0128018907902, 40.6915024208843], [-74.0127558176204, 40.69148472011], [-74.0127094881114, 40.6914502995159], [-74.0126521664289, 40.6914077115565], [-74.0126382770221, 40.6914127451511], [-74.0126265666689, 40.6914169887547], [-74.012610017798, 40.6913723557295], [-74.0125857957997, 40.691378901511], [-74.0125857982, 40.6913916149569], [-74.0125465007197, 40.6913998454374], [-74.0125563319857, 40.6914312533667], [-74.0125337353868, 40.6914372388405], [-74.0125209569765, 40.691405083804], [-74.0120356251226, 40.6915113286204], [-74.0120189156843, 40.6914664586927], [-74.0125989812837, 40.6913425868707], [-74.012588211104, 40.6913135365911], [-74.0125292812604, 40.6911545889227], [-74.0124219156043, 40.6911514325585], [-74.0122996575189, 40.6911478391371], [-74.0121849994641, 40.6911444681085], [-74.0121872081501, 40.6911051658727], [-74.0121882694497, 40.6910862765935], [-74.0118272022737, 40.6910730677252], [-74.0118299292017, 40.6910196102741], [-74.0121964743596, 40.6910367141739], [-74.0121969792651, 40.6910288256239], [-74.0122046023725, 40.6909096851044], [-74.0122116238181, 40.6907999478066], [-74.0120855934571, 40.6907888739938], [-74.0120837938668, 40.6907683794001], [-74.0120837725272, 40.6907681335622], [-74.0120547035258, 40.6907473959885], [-74.0120002081884, 40.6907584626904], [-74.011998637668, 40.6907616515719], [-74.011989311517, 40.6907805885383], [-74.0119729626534, 40.6907792070522], [-74.0119767828179, 40.6907599257639], [-74.0119874821028, 40.6907059199647], [-74.0119947399495, 40.690658905208], [-74.0119927665689, 40.6906520453031], [-74.0119820165616, 40.6906146598107], [-74.0120510471234, 40.6906188003656], [-74.012053297654, 40.6906012086016], [-74.0120583031649, 40.6905621059866], [-74.0121000836707, 40.6905551883593], [-74.0121091626757, 40.6905372113565], [-74.0121119877969, 40.6905372110592], [-74.012129146741, 40.6905372092516], [-74.0121436657143, 40.6904625398541], [-74.0122267807591, 40.6904691093017], [-74.012232761153, 40.6904695823361], [-74.0122814642326, 40.6897083821728], [-74.0123083326717, 40.6892884347504], [-74.0127046586806, 40.6887987914728], [-74.0127559610735, 40.6887288077887], [-74.0131506867904, 40.6881903417718], [-74.0131707144417, 40.6881630214997], [-74.0132663162658, 40.6881306811765], [-74.0133101983309, 40.6881110260005], [-74.0133316490417, 40.688101417738], [-74.0134200385449, 40.6880604485002], [-74.0134500539706, 40.688038075336], [-74.0134738891093, 40.6880203090152], [-74.0136680708964, 40.6879158832606], [-74.0148824299061, 40.687262821445], [-74.0160487561186, 40.6873462584581], [-74.0170513163852, 40.6868842380462], [-74.0170446113873, 40.68687559861], [-74.0167172768357, 40.6864538450735], [-74.0166480914221, 40.6864245983116], [-74.0157449578278, 40.6864901171586], [-74.0151530660651, 40.6865330529879], [-74.0151453603181, 40.6864452845233], [-74.0160641570549, 40.6863723029363], [-74.0164372364784, 40.6863426665613], [-74.0166211617439, 40.686328055416], [-74.0166749656764, 40.6863134196841], [-74.0168019133295, 40.6861832796669], [-74.0169288616701, 40.6860531395074], [-74.0172743626329, 40.6856989484603], [-74.0175317744462, 40.6853712386227], [-74.0176240255596, 40.6854180341439], [-74.0173627716718, 40.6857545229753], [-74.0171560648869, 40.6859692779175], [-74.0167825895156, 40.6863572887765], [-74.0167749138753, 40.6864070252745], [-74.017115808045, 40.686843102907], [-74.0171224420305, 40.6868515892623], [-74.0194990188458, 40.6857605789209], [-74.0197655896173, 40.6856381995216], [-74.0205451247877, 40.6852803184945], [-74.0203452808665, 40.6850202936752], [-74.0202086292263, 40.6848424878559], [-74.0199656797241, 40.6849321728382], [-74.0194610251097, 40.6851632087221], [-74.0194306642897, 40.6851296688076], [-74.0193998751333, 40.6850956543862], [-74.0209540006909, 40.6843926828411], [-74.0210102310507, 40.6844617897419], [-74.0202904516071, 40.6847926975435], [-74.0202802309505, 40.684816056878], [-74.0202796493446, 40.6848173861392], [-74.0205583230146, 40.685176693995], [-74.0206141239076, 40.6852486404801], [-74.0212069514782, 40.6849850828725], [-74.0215565151971, 40.6848296720415], [-74.0218018844313, 40.6847205834668], [-74.0224054634053, 40.6844522367988], [-74.0224722221514, 40.6844225554432], [-74.022595048485, 40.6843679467281], [-74.0223491881352, 40.684052275411], [-74.0221833503723, 40.6838393467235], [-74.022133952623, 40.6837759213204], [-74.0230571996498, 40.6829251953579], [-74.0231960803572, 40.6830087477691], [-74.0223696873127, 40.6837881677471], [-74.0225241967872, 40.6839876663173], [-74.0227604427199, 40.6842926986911], [-74.0228894693139, 40.684233996498], [-74.0229662228204, 40.6841990763766], [-74.0230775226938, 40.6841538501003], [-74.0231365496688, 40.6841324060104], [-74.0233056889033, 40.6840803960016], [-74.023356883164, 40.6840646536391], [-74.0234748290565, 40.6840283848431], [-74.0236226877575, 40.6839957631742], [-74.0237735957407, 40.6839726086905], [-74.0239252854683, 40.6839591514827], [-74.0240828150764, 40.6839549807554], [-74.024292876149, 40.6839600740283], [-74.0242931659701, 40.6839600811713], [-74.0244964172471, 40.6839756908136], [-74.0245025603901, 40.6839761622755], [-74.0247062179584, 40.6840025560177], [-74.0249223521324, 40.6840417231919], [-74.0251714143277, 40.6840986300928], [-74.0254153356385, 40.6841672415718], [-74.0255540892075, 40.6842163410866], [-74.0257125300941, 40.6842855598241], [-74.0257524570575, 40.6843050542286], [-74.0258173000628, 40.6843484102562], [-74.0258469093672, 40.6843706282959], [-74.0259664413222, 40.6844603204994], [-74.0259761312617, 40.6844675917642], [-74.0260982809978, 40.6845743452784], [-74.026245100102, 40.6847197521049], [-74.0263315529071, 40.6848234940818], [-74.0264094524165, 40.6849310912554], [-74.0264852194662, 40.6850539579813], [-74.0265244903953, 40.6851354418495], [-74.0265701238786, 40.6852538723231], [-74.0266049437682, 40.6853744124805], [-74.0266134824581, 40.685448761441], [-74.0266193680325, 40.6855000200353], [-74.0266201028375, 40.6855064144149], [-74.0266219230825, 40.6856389120133], [-74.0266200542473, 40.6856602672331], [-74.0266184904082, 40.6856781400949], [-74.0266131182415, 40.6857395473824], [-74.026610362678, 40.6857710488972], [-74.0265892803481, 40.6858493426499], [-74.0265801999964, 40.6858733209308], [-74.026555162821, 40.6859394415422], [-74.0265460304494, 40.6859635585113], [-74.0265280267099, 40.6859988628083], [-74.0265264593154, 40.6860019339221], [-74.0264900782484, 40.6860732747105], [-74.0264276759528, 40.6861671910456], [-74.0263562163119, 40.6862572903415], [-74.0263057504907, 40.686307798205], [-74.0262741881761, 40.6863393864375], [-74.0261763342872, 40.6864373225121], [-74.0249974868156, 40.6875426366352], [-74.0249614180979, 40.6875764551534], [-74.0243751303686, 40.6881348434969], [-74.0241821220244, 40.6883086887572], [-74.0241208230619, 40.6883639013077], [-74.0237365778465, 40.6887265856238], [-74.0234823468269, 40.6889665481098], [-74.0234166119022, 40.6890261890108], [-74.0232579052674, 40.6891701826965], [-74.0227678310496, 40.6896371546372], [-74.0227470353549, 40.6896569700466], [-74.0224417792932, 40.6899478309962], [-74.0222041239011, 40.6901660706044], [-74.0216124095981, 40.6907202088143], [-74.0215192220514, 40.6908054607682], [-74.0214843006332, 40.6908383990665], [-74.0206247535799, 40.6916491272653]]]}, "properties": {"OBJECTID": 31, "SDNAME": "Special Governors Island District", "SDLBL": "GI", "Shape__Area": 7673711.6468987465, "Shape__Length": 17436.933883020443}}, {"type": "Feature", "id": 91, "geometry": {"type": "Polygon", "coordinates": [[[-74.0061632425818, 40.7224523675262], [-74.0054673109297, 40.7219335281404], [-74.0054659287609, 40.7219369825611], [-74.003448081891, 40.7205160356222], [-74.0018849183374, 40.7194054459821], [-74.0025394351794, 40.7186351623372], [-74.0025429136873, 40.7186367525612], [-74.0051875982501, 40.719845719043], [-74.0051756516872, 40.7190128523193], [-74.0051858187846, 40.7190175237075], [-74.0054717278515, 40.7191488750672], [-74.0064005130271, 40.717973160828], [-74.0070534571154, 40.7182772393397], [-74.0070534748661, 40.7182772168259], [-74.0072519702512, 40.7180279387845], [-74.0072462191574, 40.7180252979505], [-74.0069652872406, 40.7178963190184], [-74.0069633923106, 40.7178954492403], [-74.0070096920727, 40.7178380965396], [-74.0067762634402, 40.7177306247266], [-74.0070118730247, 40.7174303967235], [-74.0069014234024, 40.7173792391112], [-74.0068990870116, 40.7173781640421], [-74.0069019116992, 40.7173744195512], [-74.0081521201126, 40.7157167153121], [-74.0064666806323, 40.7149456206981], [-74.0078089384165, 40.7133453616186], [-74.0113418706218, 40.7149463988692], [-74.0105276738479, 40.7181228372759], [-74.0099523914436, 40.721460706852], [-74.0117572407522, 40.7216327546326], [-74.0110314441735, 40.7251539041422], [-74.0098621579876, 40.7250305189177], [-74.0079401933814, 40.7236578779232], [-74.0081182724048, 40.722635032569], [-74.0081182783157, 40.722634973135], [-74.008115589103, 40.7226347220824], [-74.0061632425818, 40.7224523675262]]]}, "properties": {"OBJECTID": 91, "SDNAME": "Special Tribeca Mixed Use District", "SDLBL": "TMU", "Shape__Area": 4999346.552703857, "Shape__Length": 13654.835890907942}}, {"type": "Feature", "id": 37, "geometry": {"type": "Polygon", "coordinates": [[[-74.0079083626118, 40.7237043500045], [-74.0075587805271, 40.725848526707], [-74.0091024911923, 40.7260009711444], [-74.0085941455982, 40.728923559923], [-74.0047823224251, 40.7285614085565], [-74.0047651310814, 40.7285597631394], [-74.0051172882268, 40.726392592997], [-74.0037316949949, 40.7262583245284], [-74.0037316239735, 40.7262583173266], [-74.0040317886701, 40.7255216033409], [-74.0040321283321, 40.7255207541488], [-74.004168343483, 40.7255328593431], [-74.0042524775431, 40.7252540703099], [-74.0045761091284, 40.7241816647531], [-74.0045762038042, 40.7241814333185], [-74.0047823328609, 40.7236456839648], [-74.0047854482342, 40.7236462565594], [-74.0047881174132, 40.7236308739457], [-74.0054673109297, 40.7219335281404], [-74.0061632425818, 40.7224523675262], [-74.0062240069407, 40.7224892869507], [-74.0079083626118, 40.7237043500045]]]}, "properties": {"OBJECTID": 37, "SDNAME": "Special Hudson Square District", "SDLBL": "HSQ", "Shape__Area": 2202201.164505005, "Shape__Length": 7160.838757831581}}, {"type": "Feature", "id": 8, "geometry": {"type": "Polygon", "coordinates": [[[-73.9885340416452, 40.7699933395925], [-73.9852207738851, 40.7686046072645], [-73.985202956908, 40.7686290509521], [-73.9831498194277, 40.7677628689189], [-73.9831518087607, 40.7677601397827], [-73.9831699568257, 40.7677352444044], [-73.9841539675645, 40.7663853223347], [-73.9833680280856, 40.7660535208225], [-73.9835900281615, 40.7657494884466], [-73.9855181145029, 40.7631139105788], [-73.9862896807143, 40.7620520111829], [-73.9865680762041, 40.7616706901774], [-73.9883357668539, 40.7592429722855], [-73.9883367828821, 40.7592434001282], [-73.9883622368123, 40.7592070556206], [-73.9883821635199, 40.7591719469433], [-73.9897847108196, 40.7572437724576], [-73.9904112640833, 40.7575071691373], [-73.9904119179121, 40.7575062713881], [-73.9904171886391, 40.7575084879698], [-73.9915425957435, 40.7579818509495], [-73.9915453626257, 40.757978058225], [-73.9915462235273, 40.7579784202912], [-73.9915504250116, 40.7579801855894], [-73.9917005148604, 40.7577744544897], [-73.9920330989689, 40.7573185711085], [-74.0014805352127, 40.7612986931524], [-74.0010729190906, 40.7618537831414], [-74.0007937968855, 40.7620284022526], [-74.0001741849972, 40.7625100721404], [-74.0003039567428, 40.7625630098264], [-74.0000658570443, 40.7627565248323], [-73.9998251057011, 40.7629481342569], [-73.9995970377495, 40.763126112], [-73.9993668261734, 40.763302487455], [-73.9992729512321, 40.763380250714], [-73.9991838527909, 40.7634611975807], [-73.9990997173942, 40.7635451585938], [-73.999020721198, 40.7636319579812], [-73.9990087389479, 40.7636458994875], [-73.9988816568322, 40.7637766558375], [-73.9987607697792, 40.7639107652831], [-73.9986462307143, 40.7640480582139], [-73.9985381845373, 40.7641883609924], [-73.9984832182826, 40.7642505860294], [-73.9943831284282, 40.7698798521648], [-73.9941705603947, 40.7715897246875], [-73.9939722498998, 40.7718624111935], [-73.993278931079, 40.7728157409861], [-73.9880808242267, 40.7706230589124], [-73.9880809924629, 40.7706228284009], [-73.9885340416452, 40.7699933395925]]]}, "properties": {"OBJECTID": 8, "SDNAME": "Special Clinton District", "SDLBL": "CL", "Shape__Area": 15495023.194606066, "Shape__Length": 16833.46678254374}}]}